{"type":"FeatureCollection","properties":{"source":"VDOT CrashData basic (Virginia Roads open data portal)","sourceUrl":"https://virginiaroads-vdot.opendata.arcgis.com/","fetched":"2026-07-23","years":[2021,2022,2023,2024,2025],"jurisdiction":"Henrico County (JURIS_CODE 43)","sample":false},"features":[{"type":"Feature","geometry":{"type":"Point","coordinates":[-77.35297,37.49324]},"properties":{"year":2021,"mode":"ped","sev":"injury"}},{"type":"Feature","geometry":{"type":"Point","coordinates":[-77.52007,37.61192]},"properties":{"year":2021,"mode":"ped","sev":"fatal"}},{"type":"Feature","geometry":{"type":"Point","coordinates":[-77.30465,37.53862]},"properties":{"year":2021,"mode":"ped","sev":"injury"}},{"type":"Feature","geometry":{"type":"Point","coordinates":[-77.64626,37.63946]},"properties":{"year":2021,"mode":"bike","sev":"injury"}},{"type":"Feature","geometry":{"type":"Point","coordinates":[-77.49705,37.58466]},"properties":{"year":2021,"mode":"ped","sev":"injury"}},{"type":"Feature","geometry":{"type":"Point","coordinates":[-77.31242,37.52991]},"properties":{"year":2021,"mode":"ped","sev":"injury"}},{"type":"Feature","geometry":{"type":"Point","coordinates":[-77.42403,37.62279]},"properties":{"year":2021,"mode":"bike","sev":"injury"}},{"type":"Feature","geometry":{"type":"Point","coordinates":[-77.49414,37.64227]},"properties":{"year":2021,"mode":"bike","sev":"injury"}},{"type":"Feature","geometry":{"type":"Point","coordinates":[-77.55218,37.64505]},"properties":{"year":2021,"mode":"ped","sev":"fatal"}},{"type":"Feature","geometry":{"type":"Point","coordinates":[-77.36991,37.54413]},"properties":{"year":2021,"mode":"ped","sev":"injury"}},{"type":"Feature","geometry":{"type":"Point","coordinates":[-77.57249,37.60574]},"properties":{"year":2021,"mode":"ped","sev":"injury"}},{"type":"Feature","geometry":{"type":"Point","coordinates":[-77.45906,37.63509]},"properties":{"year":2021,"mode":"ped","sev":"injury"}},{"type":"Feature","geometry":{"type":"Point","coordinates":[-77.35269,37.44477]},"properties":{"year":2021,"mode":"bike","sev":"injury"}},{"type":"Feature","geometry":{"type":"Point","coordinates":[-77.52042,37.61258]},"properties":{"year":2021,"mode":"ped","sev":"injury"}},{"type":"Feature","geometry":{"type":"Point","coordinates":[-77.50975,37.58336]},"properties":{"year":2021,"mode":"ped","sev":"injury"}},{"type":"Feature","geometry":{"type":"Point","coordinates":[-77.41172,37.50615]},"properties":{"year":2021,"mode":"ped","sev":"injury"}},{"type":"Feature","geometry":{"type":"Point","coordinates":[-77.60224,37.62896]},"properties":{"year":2021,"mode":"ped","sev":"injury"}},{"type":"Feature","geometry":{"type":"Point","coordinates":[-77.52309,37.65611]},"properties":{"year":2021,"mode":"ped","sev":"fatal"}},{"type":"Feature","geometry":{"type":"Point","coordinates":[-77.45153,37.62564]},"properties":{"year":2021,"mode":"ped","sev":"injury"}},{"type":"Feature","geometry":{"type":"Point","coordinates":[-77.4598,37.6473]},"properties":{"year":2021,"mode":"bike","sev":"injury"}},{"type":"Feature","geometry":{"type":"Point","coordinates":[-77.28855,37.47473]},"properties":{"year":2021,"mode":"ped","sev":"injury"}},{"type":"Feature","geometry":{"type":"Point","coordinates":[-77.57008,37.61963]},"properties":{"year":2021,"mode":"ped","sev":"injury"}},{"type":"Feature","geometry":{"type":"Point","coordinates":[-77.57658,37.64592]},"properties":{"year":2021,"mode":"ped","sev":"fatal"}},{"type":"Feature","geometry":{"type":"Point","coordinates":[-77.34275,37.55104]},"properties":{"year":2021,"mode":"ped","sev":"injury"}},{"type":"Feature","geometry":{"type":"Point","coordinates":[-77.54628,37.65459]},"properties":{"year":2021,"mode":"bike","sev":"injury"}},{"type":"Feature","geometry":{"type":"Point","coordinates":[-77.52177,37.61446]},"properties":{"year":2021,"mode":"ped","sev":"injury"}},{"type":"Feature","geometry":{"type":"Point","coordinates":[-77.37129,37.5518]},"properties":{"year":2021,"mode":"ped","sev":"injury"}},{"type":"Feature","geometry":{"type":"Point","coordinates":[-77.525,37.62069]},"properties":{"year":2021,"mode":"ped","sev":"injury"}},{"type":"Feature","geometry":{"type":"Point","coordinates":[-77.45035,37.60421]},"properties":{"year":2021,"mode":"ped","sev":"injury"}},{"type":"Feature","geometry":{"type":"Point","coordinates":[-77.56911,37.60436]},"properties":{"year":2021,"mode":"ped","sev":"injury"}},{"type":"Feature","geometry":{"type":"Point","coordinates":[-77.33135,37.45448]},"properties":{"year":2021,"mode":"bike","sev":"other"}},{"type":"Feature","geometry":{"type":"Point","coordinates":[-77.3929,37.43648]},"properties":{"year":2021,"mode":"ped","sev":"fatal"}},{"type":"Feature","geometry":{"type":"Point","coordinates":[-77.4546,37.60308]},"properties":{"year":2021,"mode":"ped","sev":"injury"}},{"type":"Feature","geometry":{"type":"Point","coordinates":[-77.433,37.58505]},"properties":{"year":2021,"mode":"ped","sev":"injury"}},{"type":"Feature","geometry":{"type":"Point","coordinates":[-77.59732,37.63588]},"properties":{"year":2021,"mode":"ped","sev":"injury"}},{"type":"Feature","geometry":{"type":"Point","coordinates":[-77.59789,37.62554]},"properties":{"year":2021,"mode":"ped","sev":"injury"}},{"type":"Feature","geometry":{"type":"Point","coordinates":[-77.42409,37.64022]},"properties":{"year":2021,"mode":"bike","sev":"fatal"}},{"type":"Feature","geometry":{"type":"Point","coordinates":[-77.31997,37.53788]},"properties":{"year":2021,"mode":"bike","sev":"injury"}},{"type":"Feature","geometry":{"type":"Point","coordinates":[-77.34267,37.51786]},"properties":{"year":2021,"mode":"ped","sev":"injury"}},{"type":"Feature","geometry":{"type":"Point","coordinates":[-77.49137,37.6029]},"properties":{"year":2021,"mode":"ped","sev":"injury"}},{"type":"Feature","geometry":{"type":"Point","coordinates":[-77.32584,37.54082]},"properties":{"year":2021,"mode":"ped","sev":"injury"}},{"type":"Feature","geometry":{"type":"Point","coordinates":[-77.45022,37.65974]},"properties":{"year":2021,"mode":"ped","sev":"injury"}},{"type":"Feature","geometry":{"type":"Point","coordinates":[-77.5686,37.64388]},"properties":{"year":2021,"mode":"ped","sev":"injury"}},{"type":"Feature","geometry":{"type":"Point","coordinates":[-77.41045,37.5727]},"properties":{"year":2021,"mode":"ped","sev":"injury"}},{"type":"Feature","geometry":{"type":"Point","coordinates":[-77.32604,37.54441]},"properties":{"year":2021,"mode":"ped","sev":"injury"}},{"type":"Feature","geometry":{"type":"Point","coordinates":[-77.44814,37.67317]},"properties":{"year":2021,"mode":"ped","sev":"fatal"}},{"type":"Feature","geometry":{"type":"Point","coordinates":[-77.50711,37.5925]},"properties":{"year":2021,"mode":"ped","sev":"injury"}},{"type":"Feature","geometry":{"type":"Point","coordinates":[-77.49703,37.58444]},"properties":{"year":2021,"mode":"ped","sev":"injury"}},{"type":"Feature","geometry":{"type":"Point","coordinates":[-77.38103,37.57021]},"properties":{"year":2021,"mode":"ped","sev":"injury"}},{"type":"Feature","geometry":{"type":"Point","coordinates":[-77.59118,37.60308]},"properties":{"year":2021,"mode":"ped","sev":"injury"}},{"type":"Feature","geometry":{"type":"Point","coordinates":[-77.51488,37.64015]},"properties":{"year":2021,"mode":"bike","sev":"injury"}},{"type":"Feature","geometry":{"type":"Point","coordinates":[-77.51886,37.60961]},"properties":{"year":2021,"mode":"ped","sev":"injury"}},{"type":"Feature","geometry":{"type":"Point","coordinates":[-77.34287,37.51793]},"properties":{"year":2021,"mode":"ped","sev":"injury"}},{"type":"Feature","geometry":{"type":"Point","coordinates":[-77.48064,37.66929]},"properties":{"year":2021,"mode":"ped","sev":"fatal"}},{"type":"Feature","geometry":{"type":"Point","coordinates":[-77.45941,37.63506]},"properties":{"year":2021,"mode":"ped","sev":"injury"}},{"type":"Feature","geometry":{"type":"Point","coordinates":[-77.49451,37.58256]},"properties":{"year":2021,"mode":"ped","sev":"injury"}},{"type":"Feature","geometry":{"type":"Point","coordinates":[-77.3261,37.55198]},"properties":{"year":2021,"mode":"ped","sev":"injury"}},{"type":"Feature","geometry":{"type":"Point","coordinates":[-77.50239,37.61353]},"properties":{"year":2021,"mode":"ped","sev":"injury"}},{"type":"Feature","geometry":{"type":"Point","coordinates":[-77.53096,37.66631]},"properties":{"year":2021,"mode":"ped","sev":"injury"}},{"type":"Feature","geometry":{"type":"Point","coordinates":[-77.46072,37.6685]},"properties":{"year":2021,"mode":"ped","sev":"injury"}},{"type":"Feature","geometry":{"type":"Point","coordinates":[-77.60384,37.67322]},"properties":{"year":2021,"mode":"ped","sev":"injury"}},{"type":"Feature","geometry":{"type":"Point","coordinates":[-77.62301,37.65078]},"properties":{"year":2021,"mode":"ped","sev":"injury"}},{"type":"Feature","geometry":{"type":"Point","coordinates":[-77.33314,37.44375]},"properties":{"year":2021,"mode":"ped","sev":"injury"}},{"type":"Feature","geometry":{"type":"Point","coordinates":[-77.53865,37.5695]},"properties":{"year":2021,"mode":"bike","sev":"injury"}},{"type":"Feature","geometry":{"type":"Point","coordinates":[-77.58676,37.6793]},"properties":{"year":2021,"mode":"ped","sev":"fatal"}},{"type":"Feature","geometry":{"type":"Point","coordinates":[-77.43567,37.58395]},"properties":{"year":2021,"mode":"ped","sev":"injury"}},{"type":"Feature","geometry":{"type":"Point","coordinates":[-77.33218,37.45336]},"properties":{"year":2021,"mode":"bike","sev":"injury"}},{"type":"Feature","geometry":{"type":"Point","coordinates":[-77.34821,37.5219]},"properties":{"year":2021,"mode":"ped","sev":"injury"}},{"type":"Feature","geometry":{"type":"Point","coordinates":[-77.61322,37.61931]},"properties":{"year":2021,"mode":"bike","sev":"injury"}},{"type":"Feature","geometry":{"type":"Point","coordinates":[-77.46057,37.66487]},"properties":{"year":2021,"mode":"bike","sev":"injury"}},{"type":"Feature","geometry":{"type":"Point","coordinates":[-77.39789,37.57418]},"properties":{"year":2021,"mode":"ped","sev":"injury"}},{"type":"Feature","geometry":{"type":"Point","coordinates":[-77.39501,37.57871]},"properties":{"year":2021,"mode":"ped","sev":"injury"}},{"type":"Feature","geometry":{"type":"Point","coordinates":[-77.32386,37.54225]},"properties":{"year":2021,"mode":"ped","sev":"injury"}},{"type":"Feature","geometry":{"type":"Point","coordinates":[-77.38267,37.51819]},"properties":{"year":2021,"mode":"ped","sev":"injury"}},{"type":"Feature","geometry":{"type":"Point","coordinates":[-77.60494,37.68582]},"properties":{"year":2021,"mode":"bike","sev":"injury"}},{"type":"Feature","geometry":{"type":"Point","coordinates":[-77.57348,37.65526]},"properties":{"year":2021,"mode":"ped","sev":"injury"}},{"type":"Feature","geometry":{"type":"Point","coordinates":[-77.51788,37.63692]},"properties":{"year":2021,"mode":"ped","sev":"injury"}},{"type":"Feature","geometry":{"type":"Point","coordinates":[-77.62745,37.68907]},"properties":{"year":2021,"mode":"bike","sev":"injury"}},{"type":"Feature","geometry":{"type":"Point","coordinates":[-77.39684,37.57572]},"properties":{"year":2021,"mode":"bike","sev":"injury"}},{"type":"Feature","geometry":{"type":"Point","coordinates":[-77.45479,37.60408]},"properties":{"year":2021,"mode":"ped","sev":"injury"}},{"type":"Feature","geometry":{"type":"Point","coordinates":[-77.63303,37.65857]},"properties":{"year":2021,"mode":"bike","sev":"injury"}},{"type":"Feature","geometry":{"type":"Point","coordinates":[-77.37655,37.5408]},"properties":{"year":2021,"mode":"ped","sev":"injury"}},{"type":"Feature","geometry":{"type":"Point","coordinates":[-77.38845,37.57039]},"properties":{"year":2021,"mode":"ped","sev":"injury"}},{"type":"Feature","geometry":{"type":"Point","coordinates":[-77.24361,37.51385]},"properties":{"year":2021,"mode":"ped","sev":"fatal"}},{"type":"Feature","geometry":{"type":"Point","coordinates":[-77.32975,37.52071]},"properties":{"year":2021,"mode":"ped","sev":"fatal"}},{"type":"Feature","geometry":{"type":"Point","coordinates":[-77.38286,37.4658]},"properties":{"year":2021,"mode":"bike","sev":"injury"}},{"type":"Feature","geometry":{"type":"Point","coordinates":[-77.47683,37.5772]},"properties":{"year":2021,"mode":"ped","sev":"injury"}},{"type":"Feature","geometry":{"type":"Point","coordinates":[-77.39804,37.57427]},"properties":{"year":2021,"mode":"ped","sev":"injury"}},{"type":"Feature","geometry":{"type":"Point","coordinates":[-77.61868,37.65283]},"properties":{"year":2021,"mode":"ped","sev":"injury"}},{"type":"Feature","geometry":{"type":"Point","coordinates":[-77.44388,37.66244]},"properties":{"year":2021,"mode":"bike","sev":"injury"}},{"type":"Feature","geometry":{"type":"Point","coordinates":[-77.53937,37.5674]},"properties":{"year":2021,"mode":"bike","sev":"injury"}},{"type":"Feature","geometry":{"type":"Point","coordinates":[-77.4999,37.58137]},"properties":{"year":2021,"mode":"ped","sev":"injury"}},{"type":"Feature","geometry":{"type":"Point","coordinates":[-77.50905,37.59442]},"properties":{"year":2021,"mode":"ped","sev":"injury"}},{"type":"Feature","geometry":{"type":"Point","coordinates":[-77.52001,37.61143]},"properties":{"year":2021,"mode":"ped","sev":"injury"}},{"type":"Feature","geometry":{"type":"Point","coordinates":[-77.53039,37.62531]},"properties":{"year":2021,"mode":"ped","sev":"injury"}},{"type":"Feature","geometry":{"type":"Point","coordinates":[-77.45109,37.63637]},"properties":{"year":2021,"mode":"bike","sev":"injury"}},{"type":"Feature","geometry":{"type":"Point","coordinates":[-77.32634,37.54478]},"properties":{"year":2021,"mode":"bike","sev":"injury"}},{"type":"Feature","geometry":{"type":"Point","coordinates":[-77.46008,37.6454]},"properties":{"year":2021,"mode":"ped","sev":"injury"}},{"type":"Feature","geometry":{"type":"Point","coordinates":[-77.40779,37.55516]},"properties":{"year":2021,"mode":"ped","sev":"fatal"}},{"type":"Feature","geometry":{"type":"Point","coordinates":[-77.51578,37.64075]},"properties":{"year":2022,"mode":"bike","sev":"injury"}},{"type":"Feature","geometry":{"type":"Point","coordinates":[-77.44964,37.6057]},"properties":{"year":2022,"mode":"ped","sev":"injury"}},{"type":"Feature","geometry":{"type":"Point","coordinates":[-77.52527,37.62096]},"properties":{"year":2022,"mode":"ped","sev":"injury"}},{"type":"Feature","geometry":{"type":"Point","coordinates":[-77.57627,37.63241]},"properties":{"year":2022,"mode":"bike","sev":"injury"}},{"type":"Feature","geometry":{"type":"Point","coordinates":[-77.57213,37.60561]},"properties":{"year":2022,"mode":"ped","sev":"injury"}},{"type":"Feature","geometry":{"type":"Point","coordinates":[-77.4447,37.60499]},"properties":{"year":2022,"mode":"bike","sev":"injury"}},{"type":"Feature","geometry":{"type":"Point","coordinates":[-77.61279,37.6193]},"properties":{"year":2022,"mode":"ped","sev":"injury"}},{"type":"Feature","geometry":{"type":"Point","coordinates":[-77.52948,37.62453]},"properties":{"year":2022,"mode":"ped","sev":"injury"}},{"type":"Feature","geometry":{"type":"Point","coordinates":[-77.37781,37.5185]},"properties":{"year":2022,"mode":"ped","sev":"injury"}},{"type":"Feature","geometry":{"type":"Point","coordinates":[-77.60284,37.59482]},"properties":{"year":2022,"mode":"ped","sev":"injury"}},{"type":"Feature","geometry":{"type":"Point","coordinates":[-77.30759,37.5262]},"properties":{"year":2022,"mode":"ped","sev":"fatal"}},{"type":"Feature","geometry":{"type":"Point","coordinates":[-77.37587,37.54089]},"properties":{"year":2022,"mode":"ped","sev":"injury"}},{"type":"Feature","geometry":{"type":"Point","coordinates":[-77.34223,37.551]},"properties":{"year":2022,"mode":"ped","sev":"injury"}},{"type":"Feature","geometry":{"type":"Point","coordinates":[-77.44645,37.62965]},"properties":{"year":2022,"mode":"bike","sev":"injury"}},{"type":"Feature","geometry":{"type":"Point","coordinates":[-77.38703,37.57395]},"properties":{"year":2022,"mode":"ped","sev":"injury"}},{"type":"Feature","geometry":{"type":"Point","coordinates":[-77.34938,37.50492]},"properties":{"year":2022,"mode":"ped","sev":"injury"}},{"type":"Feature","geometry":{"type":"Point","coordinates":[-77.60036,37.64751]},"properties":{"year":2022,"mode":"ped","sev":"injury"}},{"type":"Feature","geometry":{"type":"Point","coordinates":[-77.49685,37.61403]},"properties":{"year":2022,"mode":"ped","sev":"injury"}},{"type":"Feature","geometry":{"type":"Point","coordinates":[-77.39019,37.57526]},"properties":{"year":2022,"mode":"ped","sev":"injury"}},{"type":"Feature","geometry":{"type":"Point","coordinates":[-77.49406,37.64237]},"properties":{"year":2022,"mode":"bike","sev":"injury"}},{"type":"Feature","geometry":{"type":"Point","coordinates":[-77.63625,37.65366]},"properties":{"year":2022,"mode":"bike","sev":"injury"}},{"type":"Feature","geometry":{"type":"Point","coordinates":[-77.38072,37.44385]},"properties":{"year":2022,"mode":"bike","sev":"injury"}},{"type":"Feature","geometry":{"type":"Point","coordinates":[-77.57297,37.6059]},"properties":{"year":2022,"mode":"ped","sev":"injury"}},{"type":"Feature","geometry":{"type":"Point","coordinates":[-77.51987,37.61154]},"properties":{"year":2022,"mode":"ped","sev":"injury"}},{"type":"Feature","geometry":{"type":"Point","coordinates":[-77.33258,37.51976]},"properties":{"year":2022,"mode":"ped","sev":"injury"}},{"type":"Feature","geometry":{"type":"Point","coordinates":[-77.45165,37.64854]},"properties":{"year":2022,"mode":"ped","sev":"injury"}},{"type":"Feature","geometry":{"type":"Point","coordinates":[-77.50653,37.6293]},"properties":{"year":2022,"mode":"ped","sev":"injury"}},{"type":"Feature","geometry":{"type":"Point","coordinates":[-77.61111,37.6513]},"properties":{"year":2022,"mode":"ped","sev":"injury"}},{"type":"Feature","geometry":{"type":"Point","coordinates":[-77.38167,37.51813]},"properties":{"year":2022,"mode":"bike","sev":"injury"}},{"type":"Feature","geometry":{"type":"Point","coordinates":[-77.40495,37.56416]},"properties":{"year":2022,"mode":"ped","sev":"injury"}},{"type":"Feature","geometry":{"type":"Point","coordinates":[-77.52036,37.61247]},"properties":{"year":2022,"mode":"ped","sev":"fatal"}},{"type":"Feature","geometry":{"type":"Point","coordinates":[-77.57286,37.60586]},"properties":{"year":2022,"mode":"ped","sev":"injury"}},{"type":"Feature","geometry":{"type":"Point","coordinates":[-77.50674,37.59278]},"properties":{"year":2022,"mode":"ped","sev":"injury"}},{"type":"Feature","geometry":{"type":"Point","coordinates":[-77.59822,37.68434]},"properties":{"year":2022,"mode":"ped","sev":"injury"}},{"type":"Feature","geometry":{"type":"Point","coordinates":[-77.35892,37.52963]},"properties":{"year":2022,"mode":"ped","sev":"injury"}},{"type":"Feature","geometry":{"type":"Point","coordinates":[-77.52931,37.59502]},"properties":{"year":2022,"mode":"ped","sev":"fatal"}},{"type":"Feature","geometry":{"type":"Point","coordinates":[-77.50438,37.6465]},"properties":{"year":2022,"mode":"bike","sev":"injury"}},{"type":"Feature","geometry":{"type":"Point","coordinates":[-77.41481,37.58527]},"properties":{"year":2022,"mode":"ped","sev":"injury"}},{"type":"Feature","geometry":{"type":"Point","coordinates":[-77.39624,37.48445]},"properties":{"year":2022,"mode":"bike","sev":"injury"}},{"type":"Feature","geometry":{"type":"Point","coordinates":[-77.39272,37.54903]},"properties":{"year":2022,"mode":"ped","sev":"injury"}},{"type":"Feature","geometry":{"type":"Point","coordinates":[-77.48586,37.61124]},"properties":{"year":2022,"mode":"ped","sev":"injury"}},{"type":"Feature","geometry":{"type":"Point","coordinates":[-77.43505,37.60254]},"properties":{"year":2022,"mode":"ped","sev":"injury"}},{"type":"Feature","geometry":{"type":"Point","coordinates":[-77.33349,37.5079]},"properties":{"year":2022,"mode":"ped","sev":"injury"}},{"type":"Feature","geometry":{"type":"Point","coordinates":[-77.55291,37.62809]},"properties":{"year":2022,"mode":"ped","sev":"injury"}},{"type":"Feature","geometry":{"type":"Point","coordinates":[-77.36613,37.51876]},"properties":{"year":2022,"mode":"ped","sev":"injury"}},{"type":"Feature","geometry":{"type":"Point","coordinates":[-77.51686,37.63952]},"properties":{"year":2022,"mode":"ped","sev":"injury"}},{"type":"Feature","geometry":{"type":"Point","coordinates":[-77.36644,37.54575]},"properties":{"year":2022,"mode":"ped","sev":"injury"}},{"type":"Feature","geometry":{"type":"Point","coordinates":[-77.5933,37.67615]},"properties":{"year":2022,"mode":"ped","sev":"injury"}},{"type":"Feature","geometry":{"type":"Point","coordinates":[-77.42366,37.58558]},"properties":{"year":2022,"mode":"ped","sev":"fatal"}},{"type":"Feature","geometry":{"type":"Point","coordinates":[-77.55741,37.64593]},"properties":{"year":2022,"mode":"ped","sev":"injury"}},{"type":"Feature","geometry":{"type":"Point","coordinates":[-77.5001,37.61922]},"properties":{"year":2022,"mode":"ped","sev":"injury"}},{"type":"Feature","geometry":{"type":"Point","coordinates":[-77.58238,37.60531]},"properties":{"year":2022,"mode":"bike","sev":"injury"}},{"type":"Feature","geometry":{"type":"Point","coordinates":[-77.45424,37.60503]},"properties":{"year":2022,"mode":"ped","sev":"injury"}},{"type":"Feature","geometry":{"type":"Point","coordinates":[-77.51134,37.63668]},"properties":{"year":2022,"mode":"ped","sev":"injury"}},{"type":"Feature","geometry":{"type":"Point","coordinates":[-77.63765,37.62721]},"properties":{"year":2022,"mode":"bike","sev":"injury"}},{"type":"Feature","geometry":{"type":"Point","coordinates":[-77.45908,37.63491]},"properties":{"year":2022,"mode":"ped","sev":"injury"}},{"type":"Feature","geometry":{"type":"Point","coordinates":[-77.62897,37.65705]},"properties":{"year":2022,"mode":"bike","sev":"injury"}},{"type":"Feature","geometry":{"type":"Point","coordinates":[-77.52965,37.63085]},"properties":{"year":2022,"mode":"ped","sev":"injury"}},{"type":"Feature","geometry":{"type":"Point","coordinates":[-77.50214,37.58861]},"properties":{"year":2022,"mode":"ped","sev":"injury"}},{"type":"Feature","geometry":{"type":"Point","coordinates":[-77.53105,37.66642]},"properties":{"year":2022,"mode":"ped","sev":"injury"}},{"type":"Feature","geometry":{"type":"Point","coordinates":[-77.5,37.61351]},"properties":{"year":2022,"mode":"ped","sev":"injury"}},{"type":"Feature","geometry":{"type":"Point","coordinates":[-77.59621,37.6071]},"properties":{"year":2022,"mode":"ped","sev":"injury"}},{"type":"Feature","geometry":{"type":"Point","coordinates":[-77.39779,37.49739]},"properties":{"year":2022,"mode":"ped","sev":"fatal"}},{"type":"Feature","geometry":{"type":"Point","coordinates":[-77.36736,37.54805]},"properties":{"year":2022,"mode":"ped","sev":"injury"}},{"type":"Feature","geometry":{"type":"Point","coordinates":[-77.49701,37.58462]},"properties":{"year":2022,"mode":"ped","sev":"injury"}},{"type":"Feature","geometry":{"type":"Point","coordinates":[-77.58674,37.64725]},"properties":{"year":2022,"mode":"ped","sev":"injury"}},{"type":"Feature","geometry":{"type":"Point","coordinates":[-77.59318,37.64834]},"properties":{"year":2022,"mode":"ped","sev":"injury"}},{"type":"Feature","geometry":{"type":"Point","coordinates":[-77.39073,37.54398]},"properties":{"year":2022,"mode":"bike","sev":"injury"}},{"type":"Feature","geometry":{"type":"Point","coordinates":[-77.43976,37.60419]},"properties":{"year":2022,"mode":"ped","sev":"injury"}},{"type":"Feature","geometry":{"type":"Point","coordinates":[-77.45699,37.61317]},"properties":{"year":2022,"mode":"ped","sev":"injury"}},{"type":"Feature","geometry":{"type":"Point","coordinates":[-77.36506,37.5365]},"properties":{"year":2022,"mode":"ped","sev":"injury"}},{"type":"Feature","geometry":{"type":"Point","coordinates":[-77.35927,37.54873]},"properties":{"year":2022,"mode":"ped","sev":"injury"}},{"type":"Feature","geometry":{"type":"Point","coordinates":[-77.42407,37.62278]},"properties":{"year":2022,"mode":"ped","sev":"injury"}},{"type":"Feature","geometry":{"type":"Point","coordinates":[-77.5588,37.60288]},"properties":{"year":2022,"mode":"ped","sev":"injury"}},{"type":"Feature","geometry":{"type":"Point","coordinates":[-77.49234,37.62902]},"properties":{"year":2022,"mode":"bike","sev":"injury"}},{"type":"Feature","geometry":{"type":"Point","coordinates":[-77.32874,37.54708]},"properties":{"year":2022,"mode":"ped","sev":"injury"}},{"type":"Feature","geometry":{"type":"Point","coordinates":[-77.55183,37.58819]},"properties":{"year":2022,"mode":"bike","sev":"other"}},{"type":"Feature","geometry":{"type":"Point","coordinates":[-77.39977,37.47116]},"properties":{"year":2022,"mode":"bike","sev":"fatal"}},{"type":"Feature","geometry":{"type":"Point","coordinates":[-77.40939,37.58352]},"properties":{"year":2022,"mode":"ped","sev":"injury"}},{"type":"Feature","geometry":{"type":"Point","coordinates":[-77.37928,37.49568]},"properties":{"year":2022,"mode":"bike","sev":"injury"}},{"type":"Feature","geometry":{"type":"Point","coordinates":[-77.47097,37.61683]},"properties":{"year":2022,"mode":"ped","sev":"fatal"}},{"type":"Feature","geometry":{"type":"Point","coordinates":[-77.30191,37.51722]},"properties":{"year":2022,"mode":"ped","sev":"injury"}},{"type":"Feature","geometry":{"type":"Point","coordinates":[-77.54194,37.62024]},"properties":{"year":2022,"mode":"ped","sev":"injury"}},{"type":"Feature","geometry":{"type":"Point","coordinates":[-77.52054,37.61277]},"properties":{"year":2022,"mode":"ped","sev":"injury"}},{"type":"Feature","geometry":{"type":"Point","coordinates":[-77.5421,37.68074]},"properties":{"year":2022,"mode":"ped","sev":"injury"}},{"type":"Feature","geometry":{"type":"Point","coordinates":[-77.58934,37.68306]},"properties":{"year":2022,"mode":"bike","sev":"injury"}},{"type":"Feature","geometry":{"type":"Point","coordinates":[-77.51919,37.6102]},"properties":{"year":2022,"mode":"ped","sev":"injury"}},{"type":"Feature","geometry":{"type":"Point","coordinates":[-77.49719,37.58477]},"properties":{"year":2022,"mode":"ped","sev":"injury"}},{"type":"Feature","geometry":{"type":"Point","coordinates":[-77.42753,37.58559]},"properties":{"year":2022,"mode":"ped","sev":"injury"}},{"type":"Feature","geometry":{"type":"Point","coordinates":[-77.36615,37.54583]},"properties":{"year":2022,"mode":"ped","sev":"fatal"}},{"type":"Feature","geometry":{"type":"Point","coordinates":[-77.33368,37.48337]},"properties":{"year":2022,"mode":"ped","sev":"injury"}},{"type":"Feature","geometry":{"type":"Point","coordinates":[-77.49675,37.6067]},"properties":{"year":2022,"mode":"ped","sev":"injury"}},{"type":"Feature","geometry":{"type":"Point","coordinates":[-77.59756,37.68926]},"properties":{"year":2022,"mode":"bike","sev":"injury"}},{"type":"Feature","geometry":{"type":"Point","coordinates":[-77.57461,37.60646]},"properties":{"year":2022,"mode":"ped","sev":"injury"}},{"type":"Feature","geometry":{"type":"Point","coordinates":[-77.56048,37.62793]},"properties":{"year":2022,"mode":"bike","sev":"injury"}},{"type":"Feature","geometry":{"type":"Point","coordinates":[-77.53058,37.62547]},"properties":{"year":2022,"mode":"ped","sev":"injury"}},{"type":"Feature","geometry":{"type":"Point","coordinates":[-77.50701,37.59254]},"properties":{"year":2022,"mode":"ped","sev":"injury"}},{"type":"Feature","geometry":{"type":"Point","coordinates":[-77.40876,37.5582]},"properties":{"year":2022,"mode":"ped","sev":"fatal"}},{"type":"Feature","geometry":{"type":"Point","coordinates":[-77.46665,37.63728]},"properties":{"year":2022,"mode":"ped","sev":"injury"}},{"type":"Feature","geometry":{"type":"Point","coordinates":[-77.60449,37.65]},"properties":{"year":2023,"mode":"ped","sev":"injury"}},{"type":"Feature","geometry":{"type":"Point","coordinates":[-77.3988,37.57316]},"properties":{"year":2023,"mode":"ped","sev":"injury"}},{"type":"Feature","geometry":{"type":"Point","coordinates":[-77.37378,37.51827]},"properties":{"year":2023,"mode":"ped","sev":"injury"}},{"type":"Feature","geometry":{"type":"Point","coordinates":[-77.37549,37.531]},"properties":{"year":2023,"mode":"ped","sev":"injury"}},{"type":"Feature","geometry":{"type":"Point","coordinates":[-77.55799,37.63977]},"properties":{"year":2023,"mode":"bike","sev":"injury"}},{"type":"Feature","geometry":{"type":"Point","coordinates":[-77.45689,37.61627]},"properties":{"year":2023,"mode":"ped","sev":"injury"}},{"type":"Feature","geometry":{"type":"Point","coordinates":[-77.3663,37.54579]},"properties":{"year":2023,"mode":"ped","sev":"injury"}},{"type":"Feature","geometry":{"type":"Point","coordinates":[-77.37492,37.54108]},"properties":{"year":2023,"mode":"ped","sev":"fatal"}},{"type":"Feature","geometry":{"type":"Point","coordinates":[-77.395,37.56173]},"properties":{"year":2023,"mode":"ped","sev":"injury"}},{"type":"Feature","geometry":{"type":"Point","coordinates":[-77.46966,37.639]},"properties":{"year":2023,"mode":"ped","sev":"injury"}},{"type":"Feature","geometry":{"type":"Point","coordinates":[-77.52686,37.62245]},"properties":{"year":2023,"mode":"ped","sev":"injury"}},{"type":"Feature","geometry":{"type":"Point","coordinates":[-77.60157,37.59464]},"properties":{"year":2023,"mode":"ped","sev":"injury"}},{"type":"Feature","geometry":{"type":"Point","coordinates":[-77.37405,37.49002]},"properties":{"year":2023,"mode":"ped","sev":"injury"}},{"type":"Feature","geometry":{"type":"Point","coordinates":[-77.53464,37.62899]},"properties":{"year":2023,"mode":"ped","sev":"injury"}},{"type":"Feature","geometry":{"type":"Point","coordinates":[-77.42687,37.5855]},"properties":{"year":2023,"mode":"ped","sev":"injury"}},{"type":"Feature","geometry":{"type":"Point","coordinates":[-77.4029,37.56719]},"properties":{"year":2023,"mode":"ped","sev":"injury"}},{"type":"Feature","geometry":{"type":"Point","coordinates":[-77.42381,37.58542]},"properties":{"year":2023,"mode":"ped","sev":"injury"}},{"type":"Feature","geometry":{"type":"Point","coordinates":[-77.34997,37.52563]},"properties":{"year":2023,"mode":"ped","sev":"injury"}},{"type":"Feature","geometry":{"type":"Point","coordinates":[-77.33716,37.53992]},"properties":{"year":2023,"mode":"bike","sev":"injury"}},{"type":"Feature","geometry":{"type":"Point","coordinates":[-77.45791,37.62359]},"properties":{"year":2023,"mode":"bike","sev":"injury"}},{"type":"Feature","geometry":{"type":"Point","coordinates":[-77.54771,37.59995]},"properties":{"year":2023,"mode":"ped","sev":"fatal"}},{"type":"Feature","geometry":{"type":"Point","coordinates":[-77.4013,37.56921]},"properties":{"year":2023,"mode":"ped","sev":"injury"}},{"type":"Feature","geometry":{"type":"Point","coordinates":[-77.50975,37.63478]},"properties":{"year":2023,"mode":"ped","sev":"injury"}},{"type":"Feature","geometry":{"type":"Point","coordinates":[-77.49513,37.58289]},"properties":{"year":2023,"mode":"ped","sev":"fatal"}},{"type":"Feature","geometry":{"type":"Point","coordinates":[-77.39362,37.50937]},"properties":{"year":2023,"mode":"ped","sev":"injury"}},{"type":"Feature","geometry":{"type":"Point","coordinates":[-77.49416,37.60496]},"properties":{"year":2023,"mode":"ped","sev":"injury"}},{"type":"Feature","geometry":{"type":"Point","coordinates":[-77.60792,37.65049]},"properties":{"year":2023,"mode":"ped","sev":"injury"}},{"type":"Feature","geometry":{"type":"Point","coordinates":[-77.62343,37.69992]},"properties":{"year":2023,"mode":"bike","sev":"injury"}},{"type":"Feature","geometry":{"type":"Point","coordinates":[-77.34063,37.51791]},"properties":{"year":2023,"mode":"ped","sev":"injury"}},{"type":"Feature","geometry":{"type":"Point","coordinates":[-77.50872,37.63226]},"properties":{"year":2023,"mode":"ped","sev":"injury"}},{"type":"Feature","geometry":{"type":"Point","coordinates":[-77.57613,37.6649]},"properties":{"year":2023,"mode":"ped","sev":"injury"}},{"type":"Feature","geometry":{"type":"Point","coordinates":[-77.60705,37.60995]},"properties":{"year":2023,"mode":"bike","sev":"other"}},{"type":"Feature","geometry":{"type":"Point","coordinates":[-77.41976,37.58552]},"properties":{"year":2023,"mode":"ped","sev":"injury"}},{"type":"Feature","geometry":{"type":"Point","coordinates":[-77.44347,37.60238]},"properties":{"year":2023,"mode":"ped","sev":"injury"}},{"type":"Feature","geometry":{"type":"Point","coordinates":[-77.37443,37.5412]},"properties":{"year":2023,"mode":"ped","sev":"injury"}},{"type":"Feature","geometry":{"type":"Point","coordinates":[-77.3565,37.54881]},"properties":{"year":2023,"mode":"ped","sev":"injury"}},{"type":"Feature","geometry":{"type":"Point","coordinates":[-77.42733,37.59691]},"properties":{"year":2023,"mode":"ped","sev":"injury"}},{"type":"Feature","geometry":{"type":"Point","coordinates":[-77.49796,37.61605]},"properties":{"year":2023,"mode":"ped","sev":"injury"}},{"type":"Feature","geometry":{"type":"Point","coordinates":[-77.3788,37.567]},"properties":{"year":2023,"mode":"bike","sev":"injury"}},{"type":"Feature","geometry":{"type":"Point","coordinates":[-77.54484,37.6597]},"properties":{"year":2023,"mode":"ped","sev":"injury"}},{"type":"Feature","geometry":{"type":"Point","coordinates":[-77.52225,37.63468]},"properties":{"year":2023,"mode":"ped","sev":"injury"}},{"type":"Feature","geometry":{"type":"Point","coordinates":[-77.37151,37.55128]},"properties":{"year":2023,"mode":"ped","sev":"injury"}},{"type":"Feature","geometry":{"type":"Point","coordinates":[-77.34678,37.51736]},"properties":{"year":2023,"mode":"ped","sev":"injury"}},{"type":"Feature","geometry":{"type":"Point","coordinates":[-77.56565,37.59468]},"properties":{"year":2023,"mode":"ped","sev":"injury"}},{"type":"Feature","geometry":{"type":"Point","coordinates":[-77.59629,37.60721]},"properties":{"year":2023,"mode":"bike","sev":"injury"}},{"type":"Feature","geometry":{"type":"Point","coordinates":[-77.50133,37.58794]},"properties":{"year":2023,"mode":"bike","sev":"injury"}},{"type":"Feature","geometry":{"type":"Point","coordinates":[-77.40292,37.48583]},"properties":{"year":2023,"mode":"bike","sev":"injury"}},{"type":"Feature","geometry":{"type":"Point","coordinates":[-77.32832,37.52367]},"properties":{"year":2023,"mode":"ped","sev":"injury"}},{"type":"Feature","geometry":{"type":"Point","coordinates":[-77.59137,37.60201]},"properties":{"year":2023,"mode":"ped","sev":"injury"}},{"type":"Feature","geometry":{"type":"Point","coordinates":[-77.45555,37.60587]},"properties":{"year":2023,"mode":"ped","sev":"injury"}},{"type":"Feature","geometry":{"type":"Point","coordinates":[-77.34283,37.55104]},"properties":{"year":2023,"mode":"ped","sev":"injury"}},{"type":"Feature","geometry":{"type":"Point","coordinates":[-77.61589,37.6521]},"properties":{"year":2023,"mode":"ped","sev":"fatal"}},{"type":"Feature","geometry":{"type":"Point","coordinates":[-77.51252,37.6119]},"properties":{"year":2023,"mode":"ped","sev":"injury"}},{"type":"Feature","geometry":{"type":"Point","coordinates":[-77.34283,37.54684]},"properties":{"year":2023,"mode":"bike","sev":"injury"}},{"type":"Feature","geometry":{"type":"Point","coordinates":[-77.52066,37.60691]},"properties":{"year":2023,"mode":"bike","sev":"injury"}},{"type":"Feature","geometry":{"type":"Point","coordinates":[-77.50986,37.63492]},"properties":{"year":2023,"mode":"ped","sev":"fatal"}},{"type":"Feature","geometry":{"type":"Point","coordinates":[-77.39471,37.57915]},"properties":{"year":2023,"mode":"ped","sev":"injury"}},{"type":"Feature","geometry":{"type":"Point","coordinates":[-77.42985,37.58534]},"properties":{"year":2023,"mode":"ped","sev":"fatal"}},{"type":"Feature","geometry":{"type":"Point","coordinates":[-77.42407,37.58816]},"properties":{"year":2023,"mode":"ped","sev":"injury"}},{"type":"Feature","geometry":{"type":"Point","coordinates":[-77.52811,37.62334]},"properties":{"year":2023,"mode":"ped","sev":"fatal"}},{"type":"Feature","geometry":{"type":"Point","coordinates":[-77.50848,37.63275]},"properties":{"year":2023,"mode":"ped","sev":"injury"}},{"type":"Feature","geometry":{"type":"Point","coordinates":[-77.5603,37.64903]},"properties":{"year":2023,"mode":"ped","sev":"injury"}},{"type":"Feature","geometry":{"type":"Point","coordinates":[-77.32478,37.54315]},"properties":{"year":2023,"mode":"ped","sev":"injury"}},{"type":"Feature","geometry":{"type":"Point","coordinates":[-77.43996,37.63757]},"properties":{"year":2023,"mode":"bike","sev":"injury"}},{"type":"Feature","geometry":{"type":"Point","coordinates":[-77.57065,37.60512]},"properties":{"year":2023,"mode":"ped","sev":"injury"}},{"type":"Feature","geometry":{"type":"Point","coordinates":[-77.54077,37.68379]},"properties":{"year":2023,"mode":"ped","sev":"injury"}},{"type":"Feature","geometry":{"type":"Point","coordinates":[-77.54252,37.64429]},"properties":{"year":2023,"mode":"bike","sev":"injury"}},{"type":"Feature","geometry":{"type":"Point","coordinates":[-77.37203,37.57396]},"properties":{"year":2023,"mode":"ped","sev":"injury"}},{"type":"Feature","geometry":{"type":"Point","coordinates":[-77.34676,37.55331]},"properties":{"year":2023,"mode":"ped","sev":"injury"}},{"type":"Feature","geometry":{"type":"Point","coordinates":[-77.46558,37.66593]},"properties":{"year":2023,"mode":"ped","sev":"injury"}},{"type":"Feature","geometry":{"type":"Point","coordinates":[-77.52876,37.62413]},"properties":{"year":2023,"mode":"ped","sev":"injury"}},{"type":"Feature","geometry":{"type":"Point","coordinates":[-77.36334,37.51847]},"properties":{"year":2023,"mode":"bike","sev":"fatal"}},{"type":"Feature","geometry":{"type":"Point","coordinates":[-77.58208,37.65125]},"properties":{"year":2023,"mode":"ped","sev":"injury"}},{"type":"Feature","geometry":{"type":"Point","coordinates":[-77.38287,37.46579]},"properties":{"year":2023,"mode":"bike","sev":"injury"}},{"type":"Feature","geometry":{"type":"Point","coordinates":[-77.37359,37.56192]},"properties":{"year":2023,"mode":"ped","sev":"injury"}},{"type":"Feature","geometry":{"type":"Point","coordinates":[-77.54252,37.64936]},"properties":{"year":2023,"mode":"bike","sev":"other"}},{"type":"Feature","geometry":{"type":"Point","coordinates":[-77.60637,37.6196]},"properties":{"year":2023,"mode":"ped","sev":"injury"}},{"type":"Feature","geometry":{"type":"Point","coordinates":[-77.53751,37.59302]},"properties":{"year":2023,"mode":"ped","sev":"injury"}},{"type":"Feature","geometry":{"type":"Point","coordinates":[-77.49693,37.61362]},"properties":{"year":2023,"mode":"ped","sev":"injury"}},{"type":"Feature","geometry":{"type":"Point","coordinates":[-77.35798,37.52877]},"properties":{"year":2023,"mode":"ped","sev":"injury"}},{"type":"Feature","geometry":{"type":"Point","coordinates":[-77.55148,37.63699]},"properties":{"year":2023,"mode":"ped","sev":"injury"}},{"type":"Feature","geometry":{"type":"Point","coordinates":[-77.49398,37.60509]},"properties":{"year":2023,"mode":"ped","sev":"injury"}},{"type":"Feature","geometry":{"type":"Point","coordinates":[-77.36013,37.51827]},"properties":{"year":2023,"mode":"ped","sev":"injury"}},{"type":"Feature","geometry":{"type":"Point","coordinates":[-77.50969,37.59494]},"properties":{"year":2023,"mode":"ped","sev":"injury"}},{"type":"Feature","geometry":{"type":"Point","coordinates":[-77.32477,37.5224]},"properties":{"year":2023,"mode":"bike","sev":"injury"}},{"type":"Feature","geometry":{"type":"Point","coordinates":[-77.4277,37.60884]},"properties":{"year":2023,"mode":"ped","sev":"injury"}},{"type":"Feature","geometry":{"type":"Point","coordinates":[-77.56183,37.61466]},"properties":{"year":2023,"mode":"ped","sev":"injury"}},{"type":"Feature","geometry":{"type":"Point","coordinates":[-77.52971,37.63074]},"properties":{"year":2023,"mode":"bike","sev":"injury"}},{"type":"Feature","geometry":{"type":"Point","coordinates":[-77.53438,37.61045]},"properties":{"year":2023,"mode":"ped","sev":"injury"}},{"type":"Feature","geometry":{"type":"Point","coordinates":[-77.49266,37.58932]},"properties":{"year":2023,"mode":"ped","sev":"injury"}},{"type":"Feature","geometry":{"type":"Point","coordinates":[-77.32239,37.54936]},"properties":{"year":2023,"mode":"ped","sev":"injury"}},{"type":"Feature","geometry":{"type":"Point","coordinates":[-77.44359,37.61332]},"properties":{"year":2023,"mode":"bike","sev":"injury"}},{"type":"Feature","geometry":{"type":"Point","coordinates":[-77.37859,37.51837]},"properties":{"year":2023,"mode":"ped","sev":"injury"}},{"type":"Feature","geometry":{"type":"Point","coordinates":[-77.36621,37.54571]},"properties":{"year":2023,"mode":"ped","sev":"injury"}},{"type":"Feature","geometry":{"type":"Point","coordinates":[-77.32613,37.54986]},"properties":{"year":2023,"mode":"ped","sev":"injury"}},{"type":"Feature","geometry":{"type":"Point","coordinates":[-77.55003,37.63622]},"properties":{"year":2023,"mode":"ped","sev":"injury"}},{"type":"Feature","geometry":{"type":"Point","coordinates":[-77.59734,37.68942]},"properties":{"year":2023,"mode":"ped","sev":"injury"}},{"type":"Feature","geometry":{"type":"Point","coordinates":[-77.43679,37.60251]},"properties":{"year":2023,"mode":"bike","sev":"injury"}},{"type":"Feature","geometry":{"type":"Point","coordinates":[-77.39074,37.58478]},"properties":{"year":2023,"mode":"ped","sev":"injury"}},{"type":"Feature","geometry":{"type":"Point","coordinates":[-77.39837,37.57379]},"properties":{"year":2023,"mode":"ped","sev":"injury"}},{"type":"Feature","geometry":{"type":"Point","coordinates":[-77.3912,37.54404]},"properties":{"year":2023,"mode":"ped","sev":"injury"}},{"type":"Feature","geometry":{"type":"Point","coordinates":[-77.54288,37.66687]},"properties":{"year":2023,"mode":"ped","sev":"injury"}},{"type":"Feature","geometry":{"type":"Point","coordinates":[-77.35591,37.44606]},"properties":{"year":2023,"mode":"ped","sev":"injury"}},{"type":"Feature","geometry":{"type":"Point","coordinates":[-77.60837,37.65079]},"properties":{"year":2023,"mode":"ped","sev":"injury"}},{"type":"Feature","geometry":{"type":"Point","coordinates":[-77.54309,37.57911]},"properties":{"year":2023,"mode":"bike","sev":"injury"}},{"type":"Feature","geometry":{"type":"Point","coordinates":[-77.39569,37.57772]},"properties":{"year":2023,"mode":"ped","sev":"injury"}},{"type":"Feature","geometry":{"type":"Point","coordinates":[-77.34363,37.52487]},"properties":{"year":2023,"mode":"bike","sev":"injury"}},{"type":"Feature","geometry":{"type":"Point","coordinates":[-77.40101,37.47692]},"properties":{"year":2023,"mode":"bike","sev":"injury"}},{"type":"Feature","geometry":{"type":"Point","coordinates":[-77.45824,37.6281]},"properties":{"year":2023,"mode":"ped","sev":"injury"}},{"type":"Feature","geometry":{"type":"Point","coordinates":[-77.38982,37.57512]},"properties":{"year":2023,"mode":"ped","sev":"injury"}},{"type":"Feature","geometry":{"type":"Point","coordinates":[-77.61861,37.65264]},"properties":{"year":2024,"mode":"ped","sev":"injury"}},{"type":"Feature","geometry":{"type":"Point","coordinates":[-77.4248,37.60325]},"properties":{"year":2024,"mode":"ped","sev":"injury"}},{"type":"Feature","geometry":{"type":"Point","coordinates":[-77.51625,37.64089]},"properties":{"year":2024,"mode":"ped","sev":"injury"}},{"type":"Feature","geometry":{"type":"Point","coordinates":[-77.5595,37.60312]},"properties":{"year":2024,"mode":"ped","sev":"injury"}},{"type":"Feature","geometry":{"type":"Point","coordinates":[-77.35141,37.44443]},"properties":{"year":2024,"mode":"bike","sev":"injury"}},{"type":"Feature","geometry":{"type":"Point","coordinates":[-77.34303,37.51883]},"properties":{"year":2024,"mode":"ped","sev":"injury"}},{"type":"Feature","geometry":{"type":"Point","coordinates":[-77.59383,37.64318]},"properties":{"year":2024,"mode":"ped","sev":"injury"}},{"type":"Feature","geometry":{"type":"Point","coordinates":[-77.54444,37.60108]},"properties":{"year":2024,"mode":"bike","sev":"injury"}},{"type":"Feature","geometry":{"type":"Point","coordinates":[-77.60713,37.61466]},"properties":{"year":2024,"mode":"ped","sev":"injury"}},{"type":"Feature","geometry":{"type":"Point","coordinates":[-77.55186,37.64514]},"properties":{"year":2024,"mode":"bike","sev":"injury"}},{"type":"Feature","geometry":{"type":"Point","coordinates":[-77.50546,37.57969]},"properties":{"year":2024,"mode":"bike","sev":"injury"}},{"type":"Feature","geometry":{"type":"Point","coordinates":[-77.55396,37.638]},"properties":{"year":2024,"mode":"ped","sev":"injury"}},{"type":"Feature","geometry":{"type":"Point","coordinates":[-77.35579,37.52671]},"properties":{"year":2024,"mode":"bike","sev":"injury"}},{"type":"Feature","geometry":{"type":"Point","coordinates":[-77.39347,37.54423]},"properties":{"year":2024,"mode":"ped","sev":"injury"}},{"type":"Feature","geometry":{"type":"Point","coordinates":[-77.45224,37.62746]},"properties":{"year":2024,"mode":"bike","sev":"injury"}},{"type":"Feature","geometry":{"type":"Point","coordinates":[-77.45886,37.63526]},"properties":{"year":2024,"mode":"ped","sev":"injury"}},{"type":"Feature","geometry":{"type":"Point","coordinates":[-77.52537,37.62106]},"properties":{"year":2024,"mode":"ped","sev":"injury"}},{"type":"Feature","geometry":{"type":"Point","coordinates":[-77.42753,37.60297]},"properties":{"year":2024,"mode":"ped","sev":"injury"}},{"type":"Feature","geometry":{"type":"Point","coordinates":[-77.46,37.64665]},"properties":{"year":2024,"mode":"ped","sev":"fatal"}},{"type":"Feature","geometry":{"type":"Point","coordinates":[-77.54448,37.63522]},"properties":{"year":2024,"mode":"ped","sev":"injury"}},{"type":"Feature","geometry":{"type":"Point","coordinates":[-77.35377,37.52507]},"properties":{"year":2024,"mode":"ped","sev":"injury"}},{"type":"Feature","geometry":{"type":"Point","coordinates":[-77.32908,37.54742]},"properties":{"year":2024,"mode":"ped","sev":"injury"}},{"type":"Feature","geometry":{"type":"Point","coordinates":[-77.538,37.62063]},"properties":{"year":2024,"mode":"ped","sev":"injury"}},{"type":"Feature","geometry":{"type":"Point","coordinates":[-77.40626,37.56179]},"properties":{"year":2024,"mode":"bike","sev":"injury"}},{"type":"Feature","geometry":{"type":"Point","coordinates":[-77.32144,37.53634]},"properties":{"year":2024,"mode":"ped","sev":"injury"}},{"type":"Feature","geometry":{"type":"Point","coordinates":[-77.56781,37.60743]},"properties":{"year":2024,"mode":"ped","sev":"injury"}},{"type":"Feature","geometry":{"type":"Point","coordinates":[-77.50212,37.57883]},"properties":{"year":2024,"mode":"ped","sev":"injury"}},{"type":"Feature","geometry":{"type":"Point","coordinates":[-77.59653,37.57952]},"properties":{"year":2024,"mode":"bike","sev":"injury"}},{"type":"Feature","geometry":{"type":"Point","coordinates":[-77.57891,37.59543]},"properties":{"year":2024,"mode":"bike","sev":"injury"}},{"type":"Feature","geometry":{"type":"Point","coordinates":[-77.52663,37.62224]},"properties":{"year":2024,"mode":"ped","sev":"injury"}},{"type":"Feature","geometry":{"type":"Point","coordinates":[-77.59092,37.68386]},"properties":{"year":2024,"mode":"ped","sev":"injury"}},{"type":"Feature","geometry":{"type":"Point","coordinates":[-77.63479,37.64278]},"properties":{"year":2024,"mode":"ped","sev":"injury"}},{"type":"Feature","geometry":{"type":"Point","coordinates":[-77.56127,37.60892]},"properties":{"year":2024,"mode":"ped","sev":"injury"}},{"type":"Feature","geometry":{"type":"Point","coordinates":[-77.47146,37.61049]},"properties":{"year":2024,"mode":"bike","sev":"injury"}},{"type":"Feature","geometry":{"type":"Point","coordinates":[-77.35555,37.52969]},"properties":{"year":2024,"mode":"ped","sev":"injury"}},{"type":"Feature","geometry":{"type":"Point","coordinates":[-77.45167,37.63642]},"properties":{"year":2024,"mode":"ped","sev":"injury"}},{"type":"Feature","geometry":{"type":"Point","coordinates":[-77.45911,37.63539]},"properties":{"year":2024,"mode":"ped","sev":"injury"}},{"type":"Feature","geometry":{"type":"Point","coordinates":[-77.32317,37.54172]},"properties":{"year":2024,"mode":"bike","sev":"other"}},{"type":"Feature","geometry":{"type":"Point","coordinates":[-77.39251,37.58197]},"properties":{"year":2024,"mode":"ped","sev":"injury"}},{"type":"Feature","geometry":{"type":"Point","coordinates":[-77.48946,37.61981]},"properties":{"year":2024,"mode":"ped","sev":"injury"}},{"type":"Feature","geometry":{"type":"Point","coordinates":[-77.50136,37.61357]},"properties":{"year":2024,"mode":"bike","sev":"injury"}},{"type":"Feature","geometry":{"type":"Point","coordinates":[-77.50375,37.63055]},"properties":{"year":2024,"mode":"ped","sev":"injury"}},{"type":"Feature","geometry":{"type":"Point","coordinates":[-77.46078,37.67132]},"properties":{"year":2024,"mode":"bike","sev":"injury"}},{"type":"Feature","geometry":{"type":"Point","coordinates":[-77.49783,37.58351]},"properties":{"year":2024,"mode":"ped","sev":"injury"}},{"type":"Feature","geometry":{"type":"Point","coordinates":[-77.54897,37.63614]},"properties":{"year":2024,"mode":"ped","sev":"injury"}},{"type":"Feature","geometry":{"type":"Point","coordinates":[-77.2647,37.44437]},"properties":{"year":2024,"mode":"ped","sev":"injury"}},{"type":"Feature","geometry":{"type":"Point","coordinates":[-77.31615,37.53274]},"properties":{"year":2024,"mode":"bike","sev":"fatal"}},{"type":"Feature","geometry":{"type":"Point","coordinates":[-77.55297,37.6376]},"properties":{"year":2024,"mode":"bike","sev":"injury"}},{"type":"Feature","geometry":{"type":"Point","coordinates":[-77.50053,37.61945]},"properties":{"year":2024,"mode":"ped","sev":"fatal"}},{"type":"Feature","geometry":{"type":"Point","coordinates":[-77.46041,37.62226]},"properties":{"year":2024,"mode":"bike","sev":"injury"}},{"type":"Feature","geometry":{"type":"Point","coordinates":[-77.45727,37.61381]},"properties":{"year":2024,"mode":"bike","sev":"injury"}},{"type":"Feature","geometry":{"type":"Point","coordinates":[-77.37526,37.54101]},"properties":{"year":2024,"mode":"ped","sev":"injury"}},{"type":"Feature","geometry":{"type":"Point","coordinates":[-77.49373,37.6381]},"properties":{"year":2024,"mode":"bike","sev":"injury"}},{"type":"Feature","geometry":{"type":"Point","coordinates":[-77.56719,37.59467]},"properties":{"year":2024,"mode":"ped","sev":"injury"}},{"type":"Feature","geometry":{"type":"Point","coordinates":[-77.53378,37.62082]},"properties":{"year":2024,"mode":"ped","sev":"injury"}},{"type":"Feature","geometry":{"type":"Point","coordinates":[-77.60024,37.6474]},"properties":{"year":2024,"mode":"ped","sev":"injury"}},{"type":"Feature","geometry":{"type":"Point","coordinates":[-77.55111,37.63458]},"properties":{"year":2024,"mode":"ped","sev":"injury"}},{"type":"Feature","geometry":{"type":"Point","coordinates":[-77.35014,37.46119]},"properties":{"year":2024,"mode":"ped","sev":"injury"}},{"type":"Feature","geometry":{"type":"Point","coordinates":[-77.57535,37.59591]},"properties":{"year":2024,"mode":"ped","sev":"injury"}},{"type":"Feature","geometry":{"type":"Point","coordinates":[-77.34821,37.55161]},"properties":{"year":2024,"mode":"ped","sev":"fatal"}},{"type":"Feature","geometry":{"type":"Point","coordinates":[-77.38401,37.54202]},"properties":{"year":2024,"mode":"ped","sev":"injury"}},{"type":"Feature","geometry":{"type":"Point","coordinates":[-77.3702,37.5443]},"properties":{"year":2024,"mode":"bike","sev":"injury"}},{"type":"Feature","geometry":{"type":"Point","coordinates":[-77.37075,37.52164]},"properties":{"year":2024,"mode":"ped","sev":"injury"}},{"type":"Feature","geometry":{"type":"Point","coordinates":[-77.43249,37.58646]},"properties":{"year":2024,"mode":"bike","sev":"injury"}},{"type":"Feature","geometry":{"type":"Point","coordinates":[-77.46075,37.60666]},"properties":{"year":2024,"mode":"ped","sev":"injury"}},{"type":"Feature","geometry":{"type":"Point","coordinates":[-77.61164,37.65154]},"properties":{"year":2024,"mode":"bike","sev":"other"}},{"type":"Feature","geometry":{"type":"Point","coordinates":[-77.35024,37.51758]},"properties":{"year":2024,"mode":"ped","sev":"injury"}},{"type":"Feature","geometry":{"type":"Point","coordinates":[-77.40467,37.49413]},"properties":{"year":2024,"mode":"ped","sev":"injury"}},{"type":"Feature","geometry":{"type":"Point","coordinates":[-77.31931,37.53722]},"properties":{"year":2024,"mode":"ped","sev":"injury"}},{"type":"Feature","geometry":{"type":"Point","coordinates":[-77.48094,37.65917]},"properties":{"year":2024,"mode":"bike","sev":"injury"}},{"type":"Feature","geometry":{"type":"Point","coordinates":[-77.53178,37.62671]},"properties":{"year":2024,"mode":"ped","sev":"injury"}},{"type":"Feature","geometry":{"type":"Point","coordinates":[-77.56532,37.5969]},"properties":{"year":2024,"mode":"ped","sev":"injury"}},{"type":"Feature","geometry":{"type":"Point","coordinates":[-77.47145,37.60551]},"properties":{"year":2024,"mode":"bike","sev":"injury"}},{"type":"Feature","geometry":{"type":"Point","coordinates":[-77.36007,37.53095]},"properties":{"year":2024,"mode":"ped","sev":"injury"}},{"type":"Feature","geometry":{"type":"Point","coordinates":[-77.5465,37.62859]},"properties":{"year":2024,"mode":"ped","sev":"injury"}},{"type":"Feature","geometry":{"type":"Point","coordinates":[-77.55482,37.64498]},"properties":{"year":2024,"mode":"ped","sev":"injury"}},{"type":"Feature","geometry":{"type":"Point","coordinates":[-77.30796,37.53906]},"properties":{"year":2024,"mode":"bike","sev":"other"}},{"type":"Feature","geometry":{"type":"Point","coordinates":[-77.5155,37.60979]},"properties":{"year":2024,"mode":"ped","sev":"injury"}},{"type":"Feature","geometry":{"type":"Point","coordinates":[-77.52278,37.61704]},"properties":{"year":2024,"mode":"ped","sev":"injury"}},{"type":"Feature","geometry":{"type":"Point","coordinates":[-77.5043,37.61766]},"properties":{"year":2024,"mode":"ped","sev":"injury"}},{"type":"Feature","geometry":{"type":"Point","coordinates":[-77.55497,37.63839]},"properties":{"year":2024,"mode":"ped","sev":"injury"}},{"type":"Feature","geometry":{"type":"Point","coordinates":[-77.32844,37.5241]},"properties":{"year":2024,"mode":"ped","sev":"injury"}},{"type":"Feature","geometry":{"type":"Point","coordinates":[-77.35431,37.52557]},"properties":{"year":2024,"mode":"bike","sev":"injury"}},{"type":"Feature","geometry":{"type":"Point","coordinates":[-77.63205,37.63917]},"properties":{"year":2024,"mode":"bike","sev":"injury"}},{"type":"Feature","geometry":{"type":"Point","coordinates":[-77.49872,37.58199]},"properties":{"year":2024,"mode":"ped","sev":"injury"}},{"type":"Feature","geometry":{"type":"Point","coordinates":[-77.44852,37.66648]},"properties":{"year":2024,"mode":"ped","sev":"fatal"}},{"type":"Feature","geometry":{"type":"Point","coordinates":[-77.62578,37.63322]},"properties":{"year":2024,"mode":"bike","sev":"injury"}},{"type":"Feature","geometry":{"type":"Point","coordinates":[-77.45831,37.62801]},"properties":{"year":2024,"mode":"ped","sev":"injury"}},{"type":"Feature","geometry":{"type":"Point","coordinates":[-77.50463,37.62643]},"properties":{"year":2024,"mode":"bike","sev":"injury"}},{"type":"Feature","geometry":{"type":"Point","coordinates":[-77.57204,37.59884]},"properties":{"year":2024,"mode":"ped","sev":"injury"}},{"type":"Feature","geometry":{"type":"Point","coordinates":[-77.61917,37.65192]},"properties":{"year":2024,"mode":"bike","sev":"injury"}},{"type":"Feature","geometry":{"type":"Point","coordinates":[-77.50591,37.58773]},"properties":{"year":2024,"mode":"ped","sev":"injury"}},{"type":"Feature","geometry":{"type":"Point","coordinates":[-77.40398,37.49071]},"properties":{"year":2024,"mode":"bike","sev":"injury"}},{"type":"Feature","geometry":{"type":"Point","coordinates":[-77.51733,37.58789]},"properties":{"year":2024,"mode":"bike","sev":"injury"}},{"type":"Feature","geometry":{"type":"Point","coordinates":[-77.63527,37.62402]},"properties":{"year":2024,"mode":"ped","sev":"injury"}},{"type":"Feature","geometry":{"type":"Point","coordinates":[-77.49635,37.61034]},"properties":{"year":2024,"mode":"bike","sev":"injury"}},{"type":"Feature","geometry":{"type":"Point","coordinates":[-77.58144,37.65097]},"properties":{"year":2024,"mode":"ped","sev":"injury"}},{"type":"Feature","geometry":{"type":"Point","coordinates":[-77.40654,37.55235]},"properties":{"year":2024,"mode":"ped","sev":"injury"}},{"type":"Feature","geometry":{"type":"Point","coordinates":[-77.46112,37.67136]},"properties":{"year":2024,"mode":"bike","sev":"injury"}},{"type":"Feature","geometry":{"type":"Point","coordinates":[-77.50741,37.64311]},"properties":{"year":2024,"mode":"bike","sev":"fatal"}},{"type":"Feature","geometry":{"type":"Point","coordinates":[-77.36123,37.55304]},"properties":{"year":2024,"mode":"bike","sev":"injury"}},{"type":"Feature","geometry":{"type":"Point","coordinates":[-77.50064,37.59758]},"properties":{"year":2024,"mode":"ped","sev":"injury"}},{"type":"Feature","geometry":{"type":"Point","coordinates":[-77.49243,37.58873]},"properties":{"year":2024,"mode":"bike","sev":"fatal"}},{"type":"Feature","geometry":{"type":"Point","coordinates":[-77.60995,37.65092]},"properties":{"year":2024,"mode":"ped","sev":"injury"}},{"type":"Feature","geometry":{"type":"Point","coordinates":[-77.35988,37.5597]},"properties":{"year":2024,"mode":"ped","sev":"fatal"}},{"type":"Feature","geometry":{"type":"Point","coordinates":[-77.4954,37.60776]},"properties":{"year":2024,"mode":"ped","sev":"fatal"}},{"type":"Feature","geometry":{"type":"Point","coordinates":[-77.45491,37.6047]},"properties":{"year":2024,"mode":"ped","sev":"fatal"}},{"type":"Feature","geometry":{"type":"Point","coordinates":[-77.60642,37.59965]},"properties":{"year":2024,"mode":"bike","sev":"injury"}},{"type":"Feature","geometry":{"type":"Point","coordinates":[-77.34961,37.44361]},"properties":{"year":2024,"mode":"bike","sev":"injury"}},{"type":"Feature","geometry":{"type":"Point","coordinates":[-77.46058,37.66632]},"properties":{"year":2024,"mode":"ped","sev":"fatal"}},{"type":"Feature","geometry":{"type":"Point","coordinates":[-77.49674,37.61344]},"properties":{"year":2024,"mode":"ped","sev":"injury"}},{"type":"Feature","geometry":{"type":"Point","coordinates":[-77.43321,37.60259]},"properties":{"year":2024,"mode":"ped","sev":"fatal"}},{"type":"Feature","geometry":{"type":"Point","coordinates":[-77.52537,37.62106]},"properties":{"year":2024,"mode":"ped","sev":"injury"}},{"type":"Feature","geometry":{"type":"Point","coordinates":[-77.50411,37.62654]},"properties":{"year":2024,"mode":"ped","sev":"injury"}},{"type":"Feature","geometry":{"type":"Point","coordinates":[-77.55046,37.63556]},"properties":{"year":2024,"mode":"ped","sev":"injury"}},{"type":"Feature","geometry":{"type":"Point","coordinates":[-77.51487,37.64014]},"properties":{"year":2024,"mode":"ped","sev":"fatal"}},{"type":"Feature","geometry":{"type":"Point","coordinates":[-77.50834,37.6134]},"properties":{"year":2024,"mode":"ped","sev":"injury"}},{"type":"Feature","geometry":{"type":"Point","coordinates":[-77.5905,37.60716]},"properties":{"year":2024,"mode":"ped","sev":"injury"}},{"type":"Feature","geometry":{"type":"Point","coordinates":[-77.38433,37.56481]},"properties":{"year":2024,"mode":"ped","sev":"injury"}},{"type":"Feature","geometry":{"type":"Point","coordinates":[-77.45464,37.60331]},"properties":{"year":2024,"mode":"ped","sev":"fatal"}},{"type":"Feature","geometry":{"type":"Point","coordinates":[-77.49135,37.63518]},"properties":{"year":2024,"mode":"ped","sev":"injury"}},{"type":"Feature","geometry":{"type":"Point","coordinates":[-77.55285,37.63151]},"properties":{"year":2024,"mode":"ped","sev":"injury"}},{"type":"Feature","geometry":{"type":"Point","coordinates":[-77.37599,37.5183]},"properties":{"year":2024,"mode":"ped","sev":"injury"}},{"type":"Feature","geometry":{"type":"Point","coordinates":[-77.60557,37.64718]},"properties":{"year":2024,"mode":"ped","sev":"injury"}},{"type":"Feature","geometry":{"type":"Point","coordinates":[-77.58367,37.63314]},"properties":{"year":2024,"mode":"ped","sev":"injury"}},{"type":"Feature","geometry":{"type":"Point","coordinates":[-77.37143,37.51837]},"properties":{"year":2024,"mode":"bike","sev":"injury"}},{"type":"Feature","geometry":{"type":"Point","coordinates":[-77.38977,37.46852]},"properties":{"year":2024,"mode":"ped","sev":"injury"}},{"type":"Feature","geometry":{"type":"Point","coordinates":[-77.34777,37.44295]},"properties":{"year":2024,"mode":"bike","sev":"injury"}},{"type":"Feature","geometry":{"type":"Point","coordinates":[-77.62783,37.70497]},"properties":{"year":2025,"mode":"ped","sev":"injury"}},{"type":"Feature","geometry":{"type":"Point","coordinates":[-77.56161,37.64124]},"properties":{"year":2025,"mode":"ped","sev":"injury"}},{"type":"Feature","geometry":{"type":"Point","coordinates":[-77.45433,37.60659]},"properties":{"year":2025,"mode":"ped","sev":"fatal"}},{"type":"Feature","geometry":{"type":"Point","coordinates":[-77.47376,37.6166]},"properties":{"year":2025,"mode":"ped","sev":"injury"}},{"type":"Feature","geometry":{"type":"Point","coordinates":[-77.5025,37.61042]},"properties":{"year":2025,"mode":"ped","sev":"injury"}},{"type":"Feature","geometry":{"type":"Point","coordinates":[-77.42331,37.58281]},"properties":{"year":2025,"mode":"ped","sev":"injury"}},{"type":"Feature","geometry":{"type":"Point","coordinates":[-77.39924,37.58276]},"properties":{"year":2025,"mode":"ped","sev":"injury"}},{"type":"Feature","geometry":{"type":"Point","coordinates":[-77.35955,37.52804]},"properties":{"year":2025,"mode":"ped","sev":"injury"}},{"type":"Feature","geometry":{"type":"Point","coordinates":[-77.5723,37.60567]},"properties":{"year":2025,"mode":"ped","sev":"injury"}},{"type":"Feature","geometry":{"type":"Point","coordinates":[-77.33067,37.54897]},"properties":{"year":2025,"mode":"ped","sev":"injury"}},{"type":"Feature","geometry":{"type":"Point","coordinates":[-77.44742,37.60943]},"properties":{"year":2025,"mode":"ped","sev":"injury"}},{"type":"Feature","geometry":{"type":"Point","coordinates":[-77.555,37.5823]},"properties":{"year":2025,"mode":"ped","sev":"injury"}},{"type":"Feature","geometry":{"type":"Point","coordinates":[-77.53629,37.61345]},"properties":{"year":2025,"mode":"ped","sev":"injury"}},{"type":"Feature","geometry":{"type":"Point","coordinates":[-77.51744,37.58817]},"properties":{"year":2025,"mode":"ped","sev":"fatal"}},{"type":"Feature","geometry":{"type":"Point","coordinates":[-77.31963,37.53746]},"properties":{"year":2025,"mode":"ped","sev":"injury"}},{"type":"Feature","geometry":{"type":"Point","coordinates":[-77.40173,37.56886]},"properties":{"year":2025,"mode":"bike","sev":"injury"}},{"type":"Feature","geometry":{"type":"Point","coordinates":[-77.29961,37.51971]},"properties":{"year":2025,"mode":"ped","sev":"injury"}},{"type":"Feature","geometry":{"type":"Point","coordinates":[-77.62266,37.65008]},"properties":{"year":2025,"mode":"bike","sev":"injury"}},{"type":"Feature","geometry":{"type":"Point","coordinates":[-77.5537,37.58464]},"properties":{"year":2025,"mode":"ped","sev":"injury"}},{"type":"Feature","geometry":{"type":"Point","coordinates":[-77.51788,37.60859]},"properties":{"year":2025,"mode":"ped","sev":"injury"}},{"type":"Feature","geometry":{"type":"Point","coordinates":[-77.35272,37.52037]},"properties":{"year":2025,"mode":"ped","sev":"injury"}},{"type":"Feature","geometry":{"type":"Point","coordinates":[-77.60896,37.6514]},"properties":{"year":2025,"mode":"ped","sev":"injury"}},{"type":"Feature","geometry":{"type":"Point","coordinates":[-77.50643,37.61408]},"properties":{"year":2025,"mode":"ped","sev":"injury"}},{"type":"Feature","geometry":{"type":"Point","coordinates":[-77.36888,37.52359]},"properties":{"year":2025,"mode":"ped","sev":"injury"}},{"type":"Feature","geometry":{"type":"Point","coordinates":[-77.55118,37.63447]},"properties":{"year":2025,"mode":"ped","sev":"injury"}},{"type":"Feature","geometry":{"type":"Point","coordinates":[-77.48746,37.61493]},"properties":{"year":2025,"mode":"ped","sev":"injury"}},{"type":"Feature","geometry":{"type":"Point","coordinates":[-77.37616,37.49127]},"properties":{"year":2025,"mode":"bike","sev":"injury"}},{"type":"Feature","geometry":{"type":"Point","coordinates":[-77.44501,37.61333]},"properties":{"year":2025,"mode":"ped","sev":"injury"}},{"type":"Feature","geometry":{"type":"Point","coordinates":[-77.56266,37.64167]},"properties":{"year":2025,"mode":"ped","sev":"fatal"}},{"type":"Feature","geometry":{"type":"Point","coordinates":[-77.52847,37.62386]},"properties":{"year":2025,"mode":"ped","sev":"injury"}},{"type":"Feature","geometry":{"type":"Point","coordinates":[-77.62176,37.65353]},"properties":{"year":2025,"mode":"ped","sev":"injury"}},{"type":"Feature","geometry":{"type":"Point","coordinates":[-77.45028,37.67525]},"properties":{"year":2025,"mode":"ped","sev":"injury"}},{"type":"Feature","geometry":{"type":"Point","coordinates":[-77.37465,37.56163]},"properties":{"year":2025,"mode":"ped","sev":"injury"}},{"type":"Feature","geometry":{"type":"Point","coordinates":[-77.49846,37.58562]},"properties":{"year":2025,"mode":"ped","sev":"injury"}},{"type":"Feature","geometry":{"type":"Point","coordinates":[-77.60584,37.65008]},"properties":{"year":2025,"mode":"ped","sev":"fatal"}},{"type":"Feature","geometry":{"type":"Point","coordinates":[-77.45739,37.60265]},"properties":{"year":2025,"mode":"ped","sev":"fatal"}},{"type":"Feature","geometry":{"type":"Point","coordinates":[-77.49857,37.58589]},"properties":{"year":2025,"mode":"ped","sev":"injury"}},{"type":"Feature","geometry":{"type":"Point","coordinates":[-77.50573,37.60243]},"properties":{"year":2025,"mode":"ped","sev":"injury"}},{"type":"Feature","geometry":{"type":"Point","coordinates":[-77.52284,37.59832]},"properties":{"year":2025,"mode":"bike","sev":"other"}},{"type":"Feature","geometry":{"type":"Point","coordinates":[-77.4158,37.58531]},"properties":{"year":2025,"mode":"ped","sev":"injury"}},{"type":"Feature","geometry":{"type":"Point","coordinates":[-77.43688,37.58477]},"properties":{"year":2025,"mode":"ped","sev":"injury"}},{"type":"Feature","geometry":{"type":"Point","coordinates":[-77.52867,37.62405]},"properties":{"year":2025,"mode":"ped","sev":"injury"}},{"type":"Feature","geometry":{"type":"Point","coordinates":[-77.45755,37.60875]},"properties":{"year":2025,"mode":"ped","sev":"injury"}},{"type":"Feature","geometry":{"type":"Point","coordinates":[-77.39591,37.48413]},"properties":{"year":2025,"mode":"bike","sev":"injury"}},{"type":"Feature","geometry":{"type":"Point","coordinates":[-77.44905,37.67486]},"properties":{"year":2025,"mode":"ped","sev":"fatal"}},{"type":"Feature","geometry":{"type":"Point","coordinates":[-77.50832,37.64314]},"properties":{"year":2025,"mode":"bike","sev":"injury"}},{"type":"Feature","geometry":{"type":"Point","coordinates":[-77.60382,37.69103]},"properties":{"year":2025,"mode":"bike","sev":"injury"}},{"type":"Feature","geometry":{"type":"Point","coordinates":[-77.49876,37.61368]},"properties":{"year":2025,"mode":"ped","sev":"injury"}},{"type":"Feature","geometry":{"type":"Point","coordinates":[-77.45428,37.62337]},"properties":{"year":2025,"mode":"ped","sev":"injury"}},{"type":"Feature","geometry":{"type":"Point","coordinates":[-77.29977,37.45954]},"properties":{"year":2025,"mode":"ped","sev":"injury"}},{"type":"Feature","geometry":{"type":"Point","coordinates":[-77.4591,37.63534]},"properties":{"year":2025,"mode":"ped","sev":"injury"}},{"type":"Feature","geometry":{"type":"Point","coordinates":[-77.55917,37.64295]},"properties":{"year":2025,"mode":"bike","sev":"injury"}},{"type":"Feature","geometry":{"type":"Point","coordinates":[-77.45548,37.62437]},"properties":{"year":2025,"mode":"bike","sev":"injury"}},{"type":"Feature","geometry":{"type":"Point","coordinates":[-77.29005,37.51721]},"properties":{"year":2025,"mode":"ped","sev":"injury"}},{"type":"Feature","geometry":{"type":"Point","coordinates":[-77.45052,37.60427]},"properties":{"year":2025,"mode":"bike","sev":"injury"}},{"type":"Feature","geometry":{"type":"Point","coordinates":[-77.43289,37.58671]},"properties":{"year":2025,"mode":"ped","sev":"injury"}},{"type":"Feature","geometry":{"type":"Point","coordinates":[-77.60933,37.62791]},"properties":{"year":2025,"mode":"ped","sev":"injury"}},{"type":"Feature","geometry":{"type":"Point","coordinates":[-77.3936,37.50301]},"properties":{"year":2025,"mode":"bike","sev":"injury"}},{"type":"Feature","geometry":{"type":"Point","coordinates":[-77.59435,37.62485]},"properties":{"year":2025,"mode":"bike","sev":"injury"}},{"type":"Feature","geometry":{"type":"Point","coordinates":[-77.56019,37.60482]},"properties":{"year":2025,"mode":"bike","sev":"fatal"}},{"type":"Feature","geometry":{"type":"Point","coordinates":[-77.51914,37.60978]},"properties":{"year":2025,"mode":"ped","sev":"fatal"}},{"type":"Feature","geometry":{"type":"Point","coordinates":[-77.49699,37.69111]},"properties":{"year":2025,"mode":"bike","sev":"injury"}},{"type":"Feature","geometry":{"type":"Point","coordinates":[-77.60219,37.57347]},"properties":{"year":2025,"mode":"bike","sev":"injury"}},{"type":"Feature","geometry":{"type":"Point","coordinates":[-77.34993,37.51721]},"properties":{"year":2025,"mode":"ped","sev":"fatal"}},{"type":"Feature","geometry":{"type":"Point","coordinates":[-77.51297,37.58303]},"properties":{"year":2025,"mode":"ped","sev":"injury"}},{"type":"Feature","geometry":{"type":"Point","coordinates":[-77.56195,37.60211]},"properties":{"year":2025,"mode":"bike","sev":"injury"}},{"type":"Feature","geometry":{"type":"Point","coordinates":[-77.57465,37.65992]},"properties":{"year":2025,"mode":"ped","sev":"injury"}},{"type":"Feature","geometry":{"type":"Point","coordinates":[-77.45311,37.60414]},"properties":{"year":2025,"mode":"ped","sev":"injury"}},{"type":"Feature","geometry":{"type":"Point","coordinates":[-77.59941,37.59653]},"properties":{"year":2025,"mode":"ped","sev":"fatal"}},{"type":"Feature","geometry":{"type":"Point","coordinates":[-77.50459,37.59323]},"properties":{"year":2025,"mode":"ped","sev":"injury"}},{"type":"Feature","geometry":{"type":"Point","coordinates":[-77.35058,37.51734]},"properties":{"year":2025,"mode":"ped","sev":"injury"}},{"type":"Feature","geometry":{"type":"Point","coordinates":[-77.51069,37.5958]},"properties":{"year":2025,"mode":"bike","sev":"injury"}},{"type":"Feature","geometry":{"type":"Point","coordinates":[-77.35546,37.48469]},"properties":{"year":2025,"mode":"ped","sev":"injury"}},{"type":"Feature","geometry":{"type":"Point","coordinates":[-77.37351,37.56419]},"properties":{"year":2025,"mode":"ped","sev":"injury"}},{"type":"Feature","geometry":{"type":"Point","coordinates":[-77.35809,37.52887]},"properties":{"year":2025,"mode":"bike","sev":"injury"}},{"type":"Feature","geometry":{"type":"Point","coordinates":[-77.55965,37.6423]},"properties":{"year":2025,"mode":"ped","sev":"injury"}},{"type":"Feature","geometry":{"type":"Point","coordinates":[-77.36823,37.51867]},"properties":{"year":2025,"mode":"ped","sev":"injury"}},{"type":"Feature","geometry":{"type":"Point","coordinates":[-77.58858,37.68127]},"properties":{"year":2025,"mode":"ped","sev":"injury"}},{"type":"Feature","geometry":{"type":"Point","coordinates":[-77.61398,37.65191]},"properties":{"year":2025,"mode":"ped","sev":"injury"}},{"type":"Feature","geometry":{"type":"Point","coordinates":[-77.46285,37.67612]},"properties":{"year":2025,"mode":"ped","sev":"injury"}},{"type":"Feature","geometry":{"type":"Point","coordinates":[-77.32143,37.53979]},"properties":{"year":2025,"mode":"ped","sev":"injury"}},{"type":"Feature","geometry":{"type":"Point","coordinates":[-77.59717,37.61191]},"properties":{"year":2025,"mode":"ped","sev":"injury"}},{"type":"Feature","geometry":{"type":"Point","coordinates":[-77.57506,37.64572]},"properties":{"year":2025,"mode":"ped","sev":"injury"}},{"type":"Feature","geometry":{"type":"Point","coordinates":[-77.56554,37.64268]},"properties":{"year":2025,"mode":"bike","sev":"injury"}},{"type":"Feature","geometry":{"type":"Point","coordinates":[-77.51565,37.60429]},"properties":{"year":2025,"mode":"bike","sev":"fatal"}},{"type":"Feature","geometry":{"type":"Point","coordinates":[-77.32845,37.52406]},"properties":{"year":2025,"mode":"ped","sev":"injury"}},{"type":"Feature","geometry":{"type":"Point","coordinates":[-77.46687,37.64794]},"properties":{"year":2025,"mode":"ped","sev":"injury"}},{"type":"Feature","geometry":{"type":"Point","coordinates":[-77.26047,37.52767]},"properties":{"year":2025,"mode":"ped","sev":"injury"}},{"type":"Feature","geometry":{"type":"Point","coordinates":[-77.54837,37.58673]},"properties":{"year":2025,"mode":"bike","sev":"injury"}},{"type":"Feature","geometry":{"type":"Point","coordinates":[-77.37554,37.53516]},"properties":{"year":2025,"mode":"ped","sev":"injury"}},{"type":"Feature","geometry":{"type":"Point","coordinates":[-77.53498,37.6296]},"properties":{"year":2025,"mode":"ped","sev":"injury"}},{"type":"Feature","geometry":{"type":"Point","coordinates":[-77.27122,37.52263]},"properties":{"year":2025,"mode":"ped","sev":"injury"}},{"type":"Feature","geometry":{"type":"Point","coordinates":[-77.49112,37.60113]},"properties":{"year":2025,"mode":"ped","sev":"injury"}},{"type":"Feature","geometry":{"type":"Point","coordinates":[-77.45248,37.63903]},"properties":{"year":2025,"mode":"ped","sev":"injury"}},{"type":"Feature","geometry":{"type":"Point","coordinates":[-77.49593,37.58208]},"properties":{"year":2025,"mode":"ped","sev":"injury"}},{"type":"Feature","geometry":{"type":"Point","coordinates":[-77.62519,37.65296]},"properties":{"year":2025,"mode":"ped","sev":"injury"}},{"type":"Feature","geometry":{"type":"Point","coordinates":[-77.45932,37.6369]},"properties":{"year":2025,"mode":"ped","sev":"fatal"}},{"type":"Feature","geometry":{"type":"Point","coordinates":[-77.45892,37.6324]},"properties":{"year":2025,"mode":"ped","sev":"injury"}},{"type":"Feature","geometry":{"type":"Point","coordinates":[-77.59818,37.6736]},"properties":{"year":2025,"mode":"ped","sev":"injury"}},{"type":"Feature","geometry":{"type":"Point","coordinates":[-77.53659,37.6856]},"properties":{"year":2025,"mode":"bike","sev":"injury"}},{"type":"Feature","geometry":{"type":"Point","coordinates":[-77.36375,37.54657]},"properties":{"year":2025,"mode":"ped","sev":"injury"}},{"type":"Feature","geometry":{"type":"Point","coordinates":[-77.4905,37.61423]},"properties":{"year":2025,"mode":"ped","sev":"injury"}},{"type":"Feature","geometry":{"type":"Point","coordinates":[-77.36673,37.54646]},"properties":{"year":2025,"mode":"ped","sev":"injury"}},{"type":"Feature","geometry":{"type":"Point","coordinates":[-77.50823,37.61316]},"properties":{"year":2025,"mode":"ped","sev":"fatal"}}]}