{"type":"FeatureCollection","properties":{"source":"SYNTHETIC sample data — not real crashes","sample":true},"features":[{"type":"Feature","geometry":{"type":"Point","coordinates":[-77.56424,37.54185]},"properties":{"year":2023,"mode":"ped","sev":"injury"}},{"type":"Feature","geometry":{"type":"Point","coordinates":[-77.25061,37.61784]},"properties":{"year":2021,"mode":"ped","sev":"injury"}},{"type":"Feature","geometry":{"type":"Point","coordinates":[-77.3398,37.47052]},"properties":{"year":2024,"mode":"ped","sev":"injury"}},{"type":"Feature","geometry":{"type":"Point","coordinates":[-77.25424,37.67068]},"properties":{"year":2022,"mode":"ped","sev":"injury"}},{"type":"Feature","geometry":{"type":"Point","coordinates":[-77.4441,37.59425]},"properties":{"year":2025,"mode":"ped","sev":"other"}},{"type":"Feature","geometry":{"type":"Point","coordinates":[-77.4602,37.67277]},"properties":{"year":2023,"mode":"ped","sev":"injury"}},{"type":"Feature","geometry":{"type":"Point","coordinates":[-77.41141,37.68423]},"properties":{"year":2021,"mode":"ped","sev":"injury"}},{"type":"Feature","geometry":{"type":"Point","coordinates":[-77.44502,37.53096]},"properties":{"year":2025,"mode":"bike","sev":"injury"}},{"type":"Feature","geometry":{"type":"Point","coordinates":[-77.42184,37.66135]},"properties":{"year":2022,"mode":"bike","sev":"injury"}},{"type":"Feature","geometry":{"type":"Point","coordinates":[-77.36826,37.53238]},"properties":{"year":2023,"mode":"ped","sev":"fatal"}},{"type":"Feature","geometry":{"type":"Point","coordinates":[-77.51406,37.48164]},"properties":{"year":2023,"mode":"ped","sev":"injury"}},{"type":"Feature","geometry":{"type":"Point","coordinates":[-77.50882,37.67907]},"properties":{"year":2024,"mode":"ped","sev":"injury"}},{"type":"Feature","geometry":{"type":"Point","coordinates":[-77.3498,37.51694]},"properties":{"year":2023,"mode":"ped","sev":"injury"}},{"type":"Feature","geometry":{"type":"Point","coordinates":[-77.5053,37.46474]},"properties":{"year":2021,"mode":"bike","sev":"injury"}},{"type":"Feature","geometry":{"type":"Point","coordinates":[-77.50293,37.69114]},"properties":{"year":2021,"mode":"ped","sev":"other"}},{"type":"Feature","geometry":{"type":"Point","coordinates":[-77.3306,37.53985]},"properties":{"year":2025,"mode":"ped","sev":"injury"}},{"type":"Feature","geometry":{"type":"Point","coordinates":[-77.61903,37.45599]},"properties":{"year":2024,"mode":"ped","sev":"injury"}},{"type":"Feature","geometry":{"type":"Point","coordinates":[-77.28931,37.47767]},"properties":{"year":2022,"mode":"bike","sev":"fatal"}},{"type":"Feature","geometry":{"type":"Point","coordinates":[-77.62226,37.57307]},"properties":{"year":2025,"mode":"ped","sev":"injury"}},{"type":"Feature","geometry":{"type":"Point","coordinates":[-77.3429,37.4928]},"properties":{"year":2021,"mode":"ped","sev":"other"}},{"type":"Feature","geometry":{"type":"Point","coordinates":[-77.51783,37.48129]},"properties":{"year":2024,"mode":"bike","sev":"fatal"}},{"type":"Feature","geometry":{"type":"Point","coordinates":[-77.26729,37.51221]},"properties":{"year":2024,"mode":"ped","sev":"injury"}},{"type":"Feature","geometry":{"type":"Point","coordinates":[-77.30494,37.48956]},"properties":{"year":2023,"mode":"ped","sev":"injury"}},{"type":"Feature","geometry":{"type":"Point","coordinates":[-77.55195,37.62016]},"properties":{"year":2022,"mode":"ped","sev":"injury"}},{"type":"Feature","geometry":{"type":"Point","coordinates":[-77.36163,37.52612]},"properties":{"year":2025,"mode":"ped","sev":"injury"}},{"type":"Feature","geometry":{"type":"Point","coordinates":[-77.57413,37.63651]},"properties":{"year":2021,"mode":"ped","sev":"injury"}},{"type":"Feature","geometry":{"type":"Point","coordinates":[-77.58039,37.45149]},"properties":{"year":2022,"mode":"ped","sev":"injury"}},{"type":"Feature","geometry":{"type":"Point","coordinates":[-77.5244,37.50177]},"properties":{"year":2023,"mode":"ped","sev":"injury"}},{"type":"Feature","geometry":{"type":"Point","coordinates":[-77.30512,37.60161]},"properties":{"year":2023,"mode":"ped","sev":"injury"}},{"type":"Feature","geometry":{"type":"Point","coordinates":[-77.55526,37.45398]},"properties":{"year":2021,"mode":"ped","sev":"other"}},{"type":"Feature","geometry":{"type":"Point","coordinates":[-77.37936,37.54054]},"properties":{"year":2024,"mode":"ped","sev":"injury"}},{"type":"Feature","geometry":{"type":"Point","coordinates":[-77.49208,37.56339]},"properties":{"year":2024,"mode":"ped","sev":"injury"}},{"type":"Feature","geometry":{"type":"Point","coordinates":[-77.62603,37.67995]},"properties":{"year":2024,"mode":"bike","sev":"other"}},{"type":"Feature","geometry":{"type":"Point","coordinates":[-77.37308,37.47081]},"properties":{"year":2025,"mode":"ped","sev":"injury"}},{"type":"Feature","geometry":{"type":"Point","coordinates":[-77.60324,37.55436]},"properties":{"year":2023,"mode":"ped","sev":"fatal"}},{"type":"Feature","geometry":{"type":"Point","coordinates":[-77.25242,37.44064]},"properties":{"year":2025,"mode":"bike","sev":"other"}},{"type":"Feature","geometry":{"type":"Point","coordinates":[-77.47849,37.52598]},"properties":{"year":2024,"mode":"ped","sev":"other"}},{"type":"Feature","geometry":{"type":"Point","coordinates":[-77.37,37.49083]},"properties":{"year":2023,"mode":"ped","sev":"injury"}},{"type":"Feature","geometry":{"type":"Point","coordinates":[-77.49899,37.64928]},"properties":{"year":2024,"mode":"bike","sev":"injury"}},{"type":"Feature","geometry":{"type":"Point","coordinates":[-77.31056,37.54089]},"properties":{"year":2022,"mode":"bike","sev":"injury"}}]}