{"type":"FeatureCollection","features":[{"type":"Feature","geometry":{"type":"Polygon","coordinates":[[[-77.65489,37.63818],[-77.6524,37.63515],[-77.65076,37.62918],[-77.65209,37.61696],[-77.64663,37.61381],[-77.64317,37.6138],[-77.64173,37.61174],[-77.64167,37.60597],[-77.64026,37.60277],[-77.63396,37.60202],[-77.6264,37.59886],[-77.62602,37.59666],[-77.62828,37.59437],[-77.62447,37.58996],[-77.61819,37.58881],[-77.61887,37.58476],[-77.6163,37.57857],[-77.61707,37.57709],[-77.62392,37.57576],[-77.63153,37.5762],[-77.63577,37.57122],[-77.63619,37.56836],[-77.63394,37.56733],[-77.63491,37.56583],[-77.64832,37.56632],[-77.6554,37.56399],[-77.64924,37.55961],[-77.60691,37.55541],[-77.59184,37.55596],[-77.58145,37.55891],[-77.5717,37.55824],[-77.56057,37.55554],[-77.54612,37.56045],[-77.5297,37.55919],[-77.52585,37.56824],[-77.53562,37.56843],[-77.53708,37.57251],[-77.53902,37.57286],[-77.54223,37.57075],[-77.54747,37.57253],[-77.5467,37.57563],[-77.54137,37.58029],[-77.54356,37.58155],[-77.53862,37.58289],[-77.53758,37.58143],[-77.5342,37.58418],[-77.53287,37.58213],[-77.53203,37.58257],[-77.53303,37.58708],[-77.53239,37.59248],[-77.51646,37.58167],[-77.51325,37.58253],[-77.49994,37.5754],[-77.49353,37.58229],[-77.48237,37.57314],[-77.47249,37.57869],[-77.47921,37.58765],[-77.47913,37.5931],[-77.47719,37.59795],[-77.47815,37.59889],[-77.46606,37.59913],[-77.46584,37.59676],[-77.45448,37.5975],[-77.45524,37.60178],[-77.44758,37.60281],[-77.43762,37.59868],[-77.44076,37.59653],[-77.44085,37.59405],[-77.43743,37.59129],[-77.43769,37.58727],[-77.43935,37.58549],[-77.43119,37.5807],[-77.42978,37.58183],[-77.41873,37.58224],[-77.41332,37.57999],[-77.41346,37.57683],[-77.41012,37.57172],[-77.40951,37.56813],[-77.41077,37.56569],[-77.41524,37.56292],[-77.41269,37.55951],[-77.40831,37.55765],[-77.41171,37.55234],[-77.39942,37.54945],[-77.39496,37.54987],[-77.39616,37.54631],[-77.39365,37.54143],[-77.39451,37.54115],[-77.39397,37.53881],[-77.39325,37.5373],[-77.38778,37.53675],[-77.38551,37.53517],[-77.38603,37.52894],[-77.39131,37.53012],[-77.39367,37.52703],[-77.39427,37.52467],[-77.38739,37.51706],[-77.39427,37.51488],[-77.39388,37.50495],[-77.40006,37.5083],[-77.40831,37.51061],[-77.40822,37.5143],[-77.41018,37.51722],[-77.41651,37.51723],[-77.41745,37.50519],[-77.42283,37.49619],[-77.42087,37.48591],[-77.42182,37.47268],[-77.41783,37.45828],[-77.41784,37.45739],[-77.4185,37.45899],[-77.41752,37.4518],[-77.41882,37.44672],[-77.42074,37.44752],[-77.42804,37.43601],[-77.42899,37.43066],[-77.42625,37.42542],[-77.41999,37.42155],[-77.41548,37.42147],[-77.41401,37.41973],[-77.41444,37.42161],[-77.4062,37.42306],[-77.40678,37.42001],[-77.40349,37.41783],[-77.40162,37.42062],[-77.40572,37.42328],[-77.40307,37.42355],[-77.39875,37.42096],[-77.39637,37.41378],[-77.39565,37.4075],[-77.39706,37.40705],[-77.39567,37.40707],[-77.39496,37.40484],[-77.39858,37.40526],[-77.39523,37.40433],[-77.39737,37.40369],[-77.39431,37.40364],[-77.38396,37.39644],[-77.38651,37.38842],[-77.38588,37.38671],[-77.38767,37.38627],[-77.37574,37.3817],[-77.37544,37.3834],[-77.37367,37.3844],[-77.37274,37.39012],[-77.36885,37.39203],[-77.36216,37.38917],[-77.35874,37.38571],[-77.35973,37.38516],[-77.35812,37.38471],[-77.35823,37.38122],[-77.36194,37.37606],[-77.36035,37.37488],[-77.34915,37.37848],[-77.3262,37.3776],[-77.317,37.38141],[-77.30945,37.39282],[-77.3087,37.39247],[-77.30942,37.39302],[-77.30795,37.39659],[-77.30979,37.40021],[-77.30881,37.40038],[-77.30947,37.40244],[-77.30833,37.40438],[-77.30475,37.40594],[-77.30031,37.40526],[-77.29786,37.40205],[-77.2982,37.39209],[-77.3053,37.38186],[-77.30541,37.3801],[-77.30724,37.38017],[-77.30574,37.37982],[-77.30614,37.37867],[-77.31153,37.37328],[-77.31078,37.36585],[-77.30499,37.35855],[-77.30578,37.35778],[-77.30499,37.35852],[-77.28819,37.35229],[-77.28228,37.35195],[-77.27263,37.35326],[-77.26826,37.35789],[-77.26699,37.36108],[-77.26775,37.37273],[-77.26589,37.37604],[-77.26148,37.3775],[-77.26382,37.37829],[-77.2564,37.37975],[-77.25811,37.37902],[-77.25575,37.37921],[-77.25506,37.37706],[-77.255,37.37914],[-77.25157,37.37935],[-77.24835,37.3826],[-77.2504,37.38665],[-77.25404,37.38732],[-77.251,37.38896],[-77.25087,37.39217],[-77.24849,37.39288],[-77.24862,37.39485],[-77.24621,37.39459],[-77.24497,37.39293],[-77.24715,37.39273],[-77.24645,37.39091],[-77.24392,37.39092],[-77.24259,37.38891],[-77.23833,37.3875],[-77.23454,37.38153],[-77.23226,37.38349],[-77.23228,37.38209],[-77.22947,37.38292],[-77.22824,37.38093],[-77.22469,37.37976],[-77.22454,37.38166],[-77.21505,37.38557],[-77.21783,37.38647],[-77.21462,37.39366],[-77.21989,37.39553],[-77.22115,37.39869],[-77.22027,37.40031],[-77.22597,37.40537],[-77.22197,37.40819],[-77.17698,37.49137],[-77.18242,37.49393],[-77.18605,37.49798],[-77.18835,37.49796],[-77.18816,37.50022],[-77.19165,37.50086],[-77.19398,37.50754],[-77.19818,37.50897],[-77.20283,37.51296],[-77.20701,37.51345],[-77.20589,37.51552],[-77.20881,37.51642],[-77.20956,37.51946],[-77.21239,37.52136],[-77.21242,37.52315],[-77.21497,37.52544],[-77.22025,37.52722],[-77.22062,37.5327],[-77.22674,37.53399],[-77.23172,37.53959],[-77.24073,37.5378],[-77.24347,37.53944],[-77.24661,37.53924],[-77.25372,37.54273],[-77.25472,37.54461],[-77.25923,37.54697],[-77.25974,37.54891],[-77.26346,37.54965],[-77.26591,37.55186],[-77.2699,37.55154],[-77.28191,37.55572],[-77.28648,37.55608],[-77.29194,37.56083],[-77.2996,37.55971],[-77.30551,37.56084],[-77.31074,37.56484],[-77.31341,37.56461],[-77.31671,37.56747],[-77.32125,37.56778],[-77.32623,37.57],[-77.32712,37.57178],[-77.33593,37.57485],[-77.3381,37.57721],[-77.34457,37.5782],[-77.35773,37.58295],[-77.35851,37.58487],[-77.36262,37.58721],[-77.36267,37.58869],[-77.36663,37.59073],[-77.36875,37.59055],[-77.37286,37.59326],[-77.38176,37.59451],[-77.38738,37.59814],[-77.39096,37.598],[-77.39998,37.60614],[-77.40382,37.60522],[-77.40529,37.60724],[-77.40494,37.61068],[-77.40871,37.61466],[-77.40471,37.62246],[-77.40535,37.62599],[-77.416,37.63142],[-77.42068,37.6365],[-77.41994,37.63816],[-77.42425,37.64863],[-77.43033,37.65151],[-77.43076,37.65813],[-77.43953,37.66808],[-77.44016,37.67723],[-77.44222,37.68103],[-77.44582,37.68403],[-77.4488,37.68439],[-77.45089,37.68256],[-77.45122,37.6799],[-77.45462,37.68053],[-77.45626,37.67809],[-77.46013,37.67819],[-77.46083,37.68036],[-77.46429,37.68068],[-77.46604,37.68386],[-77.47157,37.68766],[-77.47637,37.68538],[-77.47723,37.68118],[-77.47855,37.68087],[-77.48216,37.68367],[-77.48306,37.68297],[-77.48816,37.68588],[-77.48821,37.68775],[-77.49012,37.68889],[-77.48798,37.69047],[-77.49035,37.69214],[-77.49253,37.69692],[-77.49178,37.69883],[-77.49399,37.70101],[-77.49711,37.70174],[-77.5023,37.69973],[-77.50398,37.70072],[-77.50665,37.69981],[-77.51131,37.70179],[-77.51372,37.70058],[-77.51335,37.69962],[-77.51664,37.69965],[-77.5201,37.69759],[-77.52135,37.69769],[-77.52216,37.70019],[-77.52468,37.69704],[-77.52742,37.69728],[-77.52619,37.69441],[-77.53161,37.69448],[-77.53376,37.69046],[-77.54043,37.68802],[-77.54349,37.68462],[-77.54714,37.68449],[-77.55069,37.68628],[-77.55126,37.68486],[-77.54989,37.68257],[-77.55687,37.68476],[-77.55786,37.68192],[-77.56709,37.68392],[-77.57318,37.68905],[-77.5787,37.68852],[-77.58509,37.69399],[-77.5879,37.69509],[-77.58868,37.69395],[-77.5946,37.69629],[-77.59472,37.70052],[-77.59684,37.70135],[-77.59936,37.70478],[-77.60486,37.7071],[-77.60681,37.70979],[-77.61098,37.71039],[-77.61785,37.70802],[-77.62252,37.70489],[-77.63023,37.7073],[-77.63775,37.68667],[-77.64201,37.68792],[-77.64163,37.68063],[-77.64274,37.67931],[-77.64088,37.67805],[-77.64593,37.66366],[-77.64618,37.65922],[-77.64942,37.65924],[-77.65001,37.65717],[-77.64856,37.6569],[-77.64965,37.65087],[-77.65365,37.64451],[-77.65349,37.64091],[-77.65489,37.63818]]]},"properties":{"STATE":"51","COUNTY":"087","NAME":"Henrico County","GEOID":"51087"}}]}