{"type":"FeatureCollection","properties":{"source":"Henrico County GIS — Schools Zones and School Locations","fetched":"2026-07-23"},"features":[{"type":"Feature","geometry":{"type":"Point","coordinates":[-77.61433,37.69483]},"properties":{"name":"Shady Grove Elementary School","level":"Elementary"}},{"type":"Feature","geometry":{"type":"Point","coordinates":[-77.59963,37.67242]},"properties":{"name":"Twin Hickory Elementary School","level":"Elementary"}},{"type":"Feature","geometry":{"type":"Point","coordinates":[-77.63912,37.65582]},"properties":{"name":"Nuckols Farm Elementary School","level":"Elementary"}},{"type":"Feature","geometry":{"type":"Point","coordinates":[-77.61198,37.64958]},"properties":{"name":"Short Pump Elementary School","level":"Elementary"}},{"type":"Feature","geometry":{"type":"Point","coordinates":[-77.63246,37.63499]},"properties":{"name":"Gayton Elementary School","level":"Elementary"}},{"type":"Feature","geometry":{"type":"Point","coordinates":[-77.62817,37.60688]},"properties":{"name":"Ruby F. Carver Elementary","level":"Elementary"}},{"type":"Feature","geometry":{"type":"Point","coordinates":[-77.57939,37.60828]},"properties":{"name":"Pemberton Elementary School","level":"Elementary"}},{"type":"Feature","geometry":{"type":"Point","coordinates":[-77.59009,37.60227]},"properties":{"name":"Pinchbeck Elementary School","level":"Elementary"}},{"type":"Feature","geometry":{"type":"Point","coordinates":[-77.58236,37.59366]},"properties":{"name":"Maybeury Elementary School","level":"Elementary"}},{"type":"Feature","geometry":{"type":"Point","coordinates":[-77.55313,37.58435]},"properties":{"name":"Tuckahoe Elementary School","level":"Elementary"}},{"type":"Feature","geometry":{"type":"Point","coordinates":[-77.55957,37.60528]},"properties":{"name":"Ridge Elementary School","level":"Elementary"}},{"type":"Feature","geometry":{"type":"Point","coordinates":[-77.53881,37.60249]},"properties":{"name":"Three Chopt Elementary School","level":"Elementary"}},{"type":"Feature","geometry":{"type":"Point","coordinates":[-77.50501,37.60321]},"properties":{"name":"Charles M. Johnson Elementary","level":"Elementary"}},{"type":"Feature","geometry":{"type":"Point","coordinates":[-77.52027,37.60012]},"properties":{"name":"Crestview Elementary","level":"Elementary"}},{"type":"Feature","geometry":{"type":"Point","coordinates":[-77.53627,37.61882]},"properties":{"name":"Skipwith Elementary School","level":"Elementary"}},{"type":"Feature","geometry":{"type":"Point","coordinates":[-77.5466,37.64094]},"properties":{"name":"R.C. Longan Elementary","level":"Elementary"}},{"type":"Feature","geometry":{"type":"Point","coordinates":[-77.54499,37.6682]},"properties":{"name":"Echo Lake Elementary School","level":"Elementary"}},{"type":"Feature","geometry":{"type":"Point","coordinates":[-77.56517,37.65723]},"properties":{"name":"Springfield Park Elementary School","level":"Elementary"}},{"type":"Feature","geometry":{"type":"Point","coordinates":[-77.52329,37.67837]},"properties":{"name":"Glen Allen Elementary School","level":"Elementary"}},{"type":"Feature","geometry":{"type":"Point","coordinates":[-77.4918,37.63824]},"properties":{"name":"Maude Trevvett Elementary ","level":"Elementary"}},{"type":"Feature","geometry":{"type":"Point","coordinates":[-77.464,37.65453]},"properties":{"name":"Longdale Elementary School","level":"Elementary"}},{"type":"Feature","geometry":{"type":"Point","coordinates":[-77.49014,37.61951]},"properties":{"name":"Elizabeth Holladay Elementary","level":"Elementary"}},{"type":"Feature","geometry":{"type":"Point","coordinates":[-77.47886,37.61332]},"properties":{"name":"Lakeside Elementary School","level":"Elementary"}},{"type":"Feature","geometry":{"type":"Point","coordinates":[-77.44217,37.63172]},"properties":{"name":"Chamberlayne Elementary","level":"Elementary"}},{"type":"Feature","geometry":{"type":"Point","coordinates":[-77.42833,37.59675]},"properties":{"name":"Laburnum Elementary School","level":"Elementary"}},{"type":"Feature","geometry":{"type":"Point","coordinates":[-77.40095,37.58001]},"properties":{"name":"Glen Lea Elementary School","level":"Elementary"}},{"type":"Feature","geometry":{"type":"Point","coordinates":[-77.38938,37.56813]},"properties":{"name":"Harold Macon Ratcliffe Elementary","level":"Elementary"}},{"type":"Feature","geometry":{"type":"Point","coordinates":[-77.36409,37.57176]},"properties":{"name":"Arthur Ashe Jr. Elementary   ","level":"Elementary"}},{"type":"Feature","geometry":{"type":"Point","coordinates":[-77.36595,37.53616]},"properties":{"name":"Jacob L. Adams Elementary","level":"Elementary"}},{"type":"Feature","geometry":{"type":"Point","coordinates":[-77.34062,37.54254]},"properties":{"name":"Highland Springs Elementary School","level":"Elementary"}},{"type":"Feature","geometry":{"type":"Point","coordinates":[-77.32045,37.53399]},"properties":{"name":"Fair Oaks Elementary School","level":"Elementary"}},{"type":"Feature","geometry":{"type":"Point","coordinates":[-77.29285,37.53816]},"properties":{"name":"Cashell Donahoe Elementary","level":"Elementary"}},{"type":"Feature","geometry":{"type":"Point","coordinates":[-77.31273,37.52457]},"properties":{"name":"Sandston Elementary School","level":"Elementary"}},{"type":"Feature","geometry":{"type":"Point","coordinates":[-77.30476,37.51619]},"properties":{"name":"Seven Pines Elementary School","level":"Elementary"}},{"type":"Feature","geometry":{"type":"Point","coordinates":[-77.37634,37.51948]},"properties":{"name":"Montrose Elementary School","level":"Elementary"}},{"type":"Feature","geometry":{"type":"Point","coordinates":[-77.36738,37.48297]},"properties":{"name":"George F. Baker Elementary","level":"Elementary"}},{"type":"Feature","geometry":{"type":"Point","coordinates":[-77.32457,37.46747]},"properties":{"name":"Henry D. Ward Elementary","level":"Elementary"}},{"type":"Feature","geometry":{"type":"Point","coordinates":[-77.3452,37.43661]},"properties":{"name":"Anthony P. Mehfoud Elementary","level":"Elementary"}},{"type":"Feature","geometry":{"type":"Point","coordinates":[-77.35458,37.44462]},"properties":{"name":"Varina Elementary School","level":"Elementary"}},{"type":"Feature","geometry":{"type":"Point","coordinates":[-77.51899,37.63883]},"properties":{"name":"Dumbarton Elementary School","level":"Elementary"}},{"type":"Feature","geometry":{"type":"Point","coordinates":[-77.5584,37.62368]},"properties":{"name":"Jackson Davis Elementary","level":"Elementary"}},{"type":"Feature","geometry":{"type":"Point","coordinates":[-77.57983,37.68741]},"properties":{"name":"Rivers Edge Elementary School","level":"Elementary"}},{"type":"Feature","geometry":{"type":"Point","coordinates":[-77.4872,37.67142]},"properties":{"name":"Greenwood Elementary School","level":"Elementary"}},{"type":"Feature","geometry":{"type":"Point","coordinates":[-77.61403,37.66051]},"properties":{"name":"Colonial Trail Elementary ","level":"Elementary"}},{"type":"Feature","geometry":{"type":"Point","coordinates":[-77.37944,37.57069]},"properties":{"name":"Harvie Elementary School","level":"Elementary"}},{"type":"Feature","geometry":{"type":"Point","coordinates":[-77.60987,37.66674]},"properties":{"name":"Short Pump Middle School","level":"Middle"}},{"type":"Feature","geometry":{"type":"Point","coordinates":[-77.60828,37.64587]},"properties":{"name":"Pocahontas Middle School","level":"Middle"}},{"type":"Feature","geometry":{"type":"Point","coordinates":[-77.58186,37.6084]},"properties":{"name":"Quioccasin Middle School","level":"Middle"}},{"type":"Feature","geometry":{"type":"Point","coordinates":[-77.56023,37.60814]},"properties":{"name":"Tuckahoe Middle School","level":"Middle"}},{"type":"Feature","geometry":{"type":"Point","coordinates":[-77.48135,37.62549]},"properties":{"name":"Moody Middle School","level":"Middle"}},{"type":"Feature","geometry":{"type":"Point","coordinates":[-77.48172,37.6416]},"properties":{"name":"Brookland Middle School","level":"Middle"}},{"type":"Feature","geometry":{"type":"Point","coordinates":[-77.42166,37.62034]},"properties":{"name":"L. Douglas Wilder Middle School","level":"Middle"}},{"type":"Feature","geometry":{"type":"Point","coordinates":[-77.35976,37.54531]},"properties":{"name":"Fairfield Middle School","level":"Middle"}},{"type":"Feature","geometry":{"type":"Point","coordinates":[-77.37301,37.47653]},"properties":{"name":"Rolfe Middle School","level":"Middle"}},{"type":"Feature","geometry":{"type":"Point","coordinates":[-77.53727,37.65756]},"properties":{"name":"Hungary Creek Middle School","level":"Middle"}},{"type":"Feature","geometry":{"type":"Point","coordinates":[-77.23255,37.50371]},"properties":{"name":"Elko Middle School","level":"Middle"}},{"type":"Feature","geometry":{"type":"Point","coordinates":[-77.59022,37.68984]},"properties":{"name":"Holman Middle School","level":"Middle"}},{"type":"Feature","geometry":{"type":"Point","coordinates":[-77.60481,37.61974]},"properties":{"name":"Mills E. Godwin High ","level":"High"}},{"type":"Feature","geometry":{"type":"Point","coordinates":[-77.55854,37.6015]},"properties":{"name":"Douglas S. Freeman High","level":"High"}},{"type":"Feature","geometry":{"type":"Point","coordinates":[-77.4315,37.60363]},"properties":{"name":"Henrico High School","level":"High"}},{"type":"Feature","geometry":{"type":"Point","coordinates":[-77.32418,37.53932]},"properties":{"name":"Highland Springs High School","level":"High"}},{"type":"Feature","geometry":{"type":"Point","coordinates":[-77.37687,37.47284]},"properties":{"name":"Varina High School","level":"High"}},{"type":"Feature","geometry":{"type":"Point","coordinates":[-77.48175,37.66184]},"properties":{"name":"Academy at Virginia Randolph","level":"Program"}},{"type":"Feature","geometry":{"type":"Point","coordinates":[-77.51706,37.63338]},"properties":{"name":"Hermitage High School","level":"High"}},{"type":"Feature","geometry":{"type":"Point","coordinates":[-77.54834,37.62883]},"properties":{"name":"Tucker High School","level":"High"}},{"type":"Feature","geometry":{"type":"Point","coordinates":[-77.59922,37.67525]},"properties":{"name":"Deep Run High School","level":"High"}},{"type":"Feature","geometry":{"type":"Point","coordinates":[-77.53417,37.66614]},"properties":{"name":"Glen Allen High School","level":"High"}},{"type":"Feature","geometry":{"type":"Point","coordinates":[-77.63177,37.69218]},"properties":{"name":"David A. Kaechele Elementary","level":"Elementary"}}]}